,Unnamed: 0,id,year,datetime,lat,lon,dep,mag,station,p_arrival_time,s_arrival_time
1064,537683,1173196,2015,2015-06-23T23:57:01.070Z,45.961,-129.9945,1.63,0.0,OOAXEC1,0.55,1.23
1065,537684,1173197,2015,2015-06-24T00:47:31.350Z,45.9642,-129.9932,1.74,0.0,OOAXEC3,0.87,1.67
1066,537685,1173197,2015,2015-06-24T00:47:31.350Z,45.9642,-129.9932,1.74,0.0,OOAXEC2,0.84,1.64
1067,537686,1173197,2015,2015-06-24T00:47:31.350Z,45.9642,-129.9932,1.74,0.0,OOAXCC1,0.56,1.19
1068,537687,1173197,2015,2015-06-24T00:47:31.350Z,45.9642,-129.9932,1.74,0.0,OOAXEC1,0.66,1.25
1069,537688,1173198,2015,2015-06-24T01:25:46.970Z,45.948,-129.9917,0.73,0.0,OOAXEC3,0.6,1.15
1070,537689,1173198,2015,2015-06-24T01:25:46.970Z,45.948,-129.9917,0.73,0.0,OOAXCC1,0.5,1.11
1071,537690,1173198,2015,2015-06-24T01:25:46.970Z,45.948,-129.9917,0.73,0.0,OOAXEC1,0.4,0.88
1072,537691,1173199,2015,2015-06-24T02:42:01.830Z,45.9533,-129.9893,1.73,0.0,OOAXCC1,0.56,1.16
1073,537692,1173199,2015,2015-06-24T02:42:01.830Z,45.9533,-129.9893,1.73,0.0,OOAXEC1,0.52,1.0
1074,537693,1173200,2015,2015-06-24T04:08:11.450Z,45.9712,-129.9903,3.22,0.0,OOAXAS2,1.16,2.07
1075,537694,1173200,2015,2015-06-24T04:08:11.450Z,45.9712,-129.9903,3.22,0.0,OOAXEC3,1.06,2.03
1076,537695,1173200,2015,2015-06-24T04:08:11.450Z,45.9712,-129.9903,3.22,0.0,OOAXEC2,1.04,1.97
1077,537696,1173200,2015,2015-06-24T04:08:11.450Z,45.9712,-129.9903,3.22,0.0,OOAXAS1,1.34,2.81
1078,537697,1173200,2015,2015-06-24T04:08:11.450Z,45.9712,-129.9903,3.22,0.0,OOAXCC1,0.71,1.75
1079,537698,1173200,2015,2015-06-24T04:08:11.450Z,45.9712,-129.9903,3.22,0.0,OOAXEC1,0.83,1.67
1080,537699,1173201,2015,2015-06-24T05:51:49.190Z,45.9172,-129.9762,0.01,0.0,OOAXAS2,0.77,1.78
1081,537700,1173201,2015,2015-06-24T05:51:49.190Z,45.9172,-129.9762,0.01,0.0,OOAXAS1,0.15,1.22
1082,537701,1173201,2015,2015-06-24T05:51:49.190Z,45.9172,-129.9762,0.01,0.0,OOAXCC1,2.27,2.28
1083,537702,1173201,2015,2015-06-24T05:51:49.190Z,45.9172,-129.9762,0.01,0.0,OOAXEC1,1.12,2.54
1084,537703,1173202,2015,2015-06-24T05:55:07.760Z,45.9517,-129.9967,0.74,0.0,OOAXAS2,0.77,1.33
1085,537704,1173202,2015,2015-06-24T05:55:07.760Z,45.9517,-129.9967,0.74,0.0,OOAXEC3,0.63,1.38
1086,537705,1173202,2015,2015-06-24T05:55:07.760Z,45.9517,-129.9967,0.74,0.0,OOAXEC2,0.66,1.32
1087,537706,1173202,2015,2015-06-24T05:55:07.760Z,45.9517,-129.9967,0.74,0.0,OOAXCC1,0.34,0.94
1088,537707,1173202,2015,2015-06-24T05:55:07.760Z,45.9517,-129.9967,0.74,0.0,OOAXEC1,0.43,1.06
1089,537708,1173203,2015,2015-06-24T06:03:53.790Z,45.9547,-129.9832,0.43,0.0,OOAXCC1,0.71,1.29
1090,537709,1173203,2015,2015-06-24T06:03:53.790Z,45.9547,-129.9832,0.43,0.0,OOAXEC1,0.12,0.66
1091,537710,1173204,2015,2015-06-24T06:24:44.910Z,45.9832,-129.9918,1.39,0.0,OOAXEC3,1.38,2.27
1092,537711,1173204,2015,2015-06-24T06:24:44.910Z,45.9832,-129.9918,1.39,0.0,OOAXCC1,0.84,1.81
1093,537712,1173204,2015,2015-06-24T06:24:44.910Z,45.9832,-129.9918,1.39,0.0,OOAXEC1,0.96,1.85
1094,537713,1173205,2015,2015-06-24T06:24:52.480Z,45.9728,-129.9985,2.44,0.0,OOAXAS2,1.08,2.03
1095,537714,1173205,2015,2015-06-24T06:24:52.480Z,45.9728,-129.9985,2.44,0.0,OOAXEC3,1.23,2.06
1096,537715,1173205,2015,2015-06-24T06:24:52.480Z,45.9728,-129.9985,2.44,0.0,OOAXEC2,1.08,1.95
1097,537716,1173205,2015,2015-06-24T06:24:52.480Z,45.9728,-129.9985,2.44,0.0,OOAXCC1,0.64,1.63
1098,537717,1173205,2015,2015-06-24T06:24:52.480Z,45.9728,-129.9985,2.44,0.0,OOAXEC1,0.77,1.64
1099,537718,1173206,2015,2015-06-24T06:51:05.800Z,45.9492,-129.9977,0.81,0.0,OOAXCC1,0.37,0.94
1100,537719,1173206,2015,2015-06-24T06:51:05.800Z,45.9492,-129.9977,0.81,0.0,OOAXEC1,0.65,0.98
1101,537720,1173207,2015,2015-06-24T07:50:13.740Z,45.9435,-129.9837,0.62,0.0,OOAXEC3,0.39,0.85
1102,537721,1173207,2015,2015-06-24T07:50:13.740Z,45.9435,-129.9837,0.62,0.0,OOAXAS1,0.55,1.17
1103,537722,1173207,2015,2015-06-24T07:50:13.740Z,45.9435,-129.9837,0.62,0.0,OOAXEC1,0.32,0.76
1104,537723,1173208,2015,2015-06-24T07:53:12.920Z,45.9533,-129.9913,1.18,0.0,OOAXCC1,0.48,1.05
1105,537724,1173208,2015,2015-06-24T07:53:12.920Z,45.9533,-129.9913,1.18,0.0,OOAXEC1,0.45,0.91
1106,537725,1173209,2015,2015-06-24T10:39:16.880Z,45.967,-129.9903,1.01,0.0,OOAXAS2,1.03,1.84
1107,537726,1173209,2015,2015-06-24T10:39:16.880Z,45.967,-129.9903,1.01,0.0,OOAXEC3,0.84,1.64
1108,537727,1173209,2015,2015-06-24T10:39:16.880Z,45.967,-129.9903,1.01,0.0,OOAXEC2,0.84,1.6
1109,537728,1173209,2015,2015-06-24T10:39:16.880Z,45.967,-129.9903,1.01,0.0,OOAXAS1,1.11,2.09
1110,537729,1173209,2015,2015-06-24T10:39:16.880Z,45.967,-129.9903,1.01,0.0,OOAXCC1,0.5,1.18
1111,537730,1173209,2015,2015-06-24T10:39:16.880Z,45.967,-129.9903,1.01,0.0,OOAXEC1,0.61,1.26
1112,537731,1173210,2015,2015-06-24T12:52:08.310Z,45.9735,-129.9852,2.54,0.0,OOAXEC3,1.23,1.98
1113,537732,1173210,2015,2015-06-24T12:52:08.310Z,45.9735,-129.9852,2.54,0.0,OOAXEC1,0.78,1.62
1114,537733,1173211,2015,2015-06-24T15:36:02.360Z,45.8357,-129.991,1.49,0.0,OOAXEC2,2.74,4.04
1115,537734,1173211,2015,2015-06-24T15:36:02.360Z,45.8357,-129.991,1.49,0.0,OOAXAS1,1.99,4.07
1116,537735,1173212,2015,2015-06-24T20:28:16.890Z,45.9425,-129.9822,1.11,0.0,OOAXEC3,0.4,0.83
1117,537736,1173212,2015,2015-06-24T20:28:16.890Z,45.9425,-129.9822,1.11,0.0,OOAXAS1,0.54,1.14
1118,537737,1173212,2015,2015-06-24T20:28:16.890Z,45.9425,-129.9822,1.11,0.0,OOAXEC1,0.39,0.84
1119,537738,1173213,2015,2015-06-24T20:45:22.060Z,45.9423,-129.9842,0.72,0.0,OOAXEC3,0.44,0.78
1120,537739,1173213,2015,2015-06-24T20:45:22.060Z,45.9423,-129.9842,0.72,0.0,OOAXAS1,0.49,1.07
1121,537740,1173213,2015,2015-06-24T20:45:22.060Z,45.9423,-129.9842,0.72,0.0,OOAXEC1,0.35,0.8
1122,537741,1173214,2015,2015-06-25T00:21:13.850Z,45.9585,-129.9978,2.38,0.0,OOAXCC1,0.58,1.2
1123,537742,1173214,2015,2015-06-25T00:21:13.850Z,45.9585,-129.9978,2.38,0.0,OOAXEC1,0.7,1.33
1124,537743,1173215,2015,2015-06-25T00:21:27.600Z,45.9595,-129.9972,2.18,0.0,OOAXEC3,0.86,1.6
1125,537744,1173215,2015,2015-06-25T00:21:27.600Z,45.9595,-129.9972,2.18,0.0,OOAXEC2,0.85,1.58
1126,537745,1173215,2015,2015-06-25T00:21:27.600Z,45.9595,-129.9972,2.18,0.0,OOAXCC1,0.54,1.17
1127,537746,1173215,2015,2015-06-25T00:21:27.600Z,45.9595,-129.9972,2.18,0.0,OOAXEC1,0.63,1.3
1128,537747,1173217,2015,2015-06-25T08:12:22.970Z,45.9657,-129.9933,2.61,0.0,OOAXEC3,0.97,1.82
1129,537748,1173217,2015,2015-06-25T08:12:22.970Z,45.9657,-129.9933,2.61,0.0,OOAXEC2,0.96,1.71
1130,537749,1173217,2015,2015-06-25T08:12:22.970Z,45.9657,-129.9933,2.61,0.0,OOAXCC1,0.66,1.41
1131,537750,1173217,2015,2015-06-25T08:12:22.970Z,45.9657,-129.9933,2.61,0.0,OOAXEC1,0.75,1.47
1132,537751,1173218,2015,2015-06-25T09:05:56.400Z,45.9672,-129.9918,1.75,0.0,OOAXEC3,0.91,1.78
1133,537752,1173218,2015,2015-06-25T09:05:56.400Z,45.9672,-129.9918,1.75,0.0,OOAXEC2,0.88,1.66
1134,537753,1173218,2015,2015-06-25T09:05:56.400Z,45.9672,-129.9918,1.75,0.0,OOAXCC1,0.6,1.26
1135,537754,1173218,2015,2015-06-25T09:05:56.400Z,45.9672,-129.9918,1.75,0.0,OOAXEC1,0.69,1.38
1136,537755,1173219,2015,2015-06-25T10:56:45.170Z,45.9508,-129.9923,1.01,0.0,OOAXAS2,0.74,1.29
1137,537756,1173219,2015,2015-06-25T10:56:45.170Z,45.9508,-129.9923,1.01,0.0,OOAXEC3,0.62,1.26
1138,537757,1173219,2015,2015-06-25T10:56:45.170Z,45.9508,-129.9923,1.01,0.0,OOAXEC2,0.61,1.21
1139,537758,1173219,2015,2015-06-25T10:56:45.170Z,45.9508,-129.9923,1.01,0.0,OOAXAS1,0.72,1.45
1140,537759,1173219,2015,2015-06-25T10:56:45.170Z,45.9508,-129.9923,1.01,0.0,OOAXCC1,0.44,1.05
1141,537760,1173219,2015,2015-06-25T10:56:45.170Z,45.9508,-129.9923,1.01,0.0,OOAXEC1,0.42,0.87
1142,537761,1173219,2015,2015-06-25T10:56:45.170Z,45.9508,-129.9923,1.01,0.0,OOAXID1,0.82,1.35
1143,537762,1173220,2015,2015-06-25T11:19:10.080Z,45.9702,-129.9962,2.36,0.0,OOAXEC3,1.05,1.92
1144,537763,1173220,2015,2015-06-25T11:19:10.080Z,45.9702,-129.9962,2.36,0.0,OOAXCC1,0.68,1.4
1145,537764,1173220,2015,2015-06-25T11:19:10.080Z,45.9702,-129.9962,2.36,0.0,OOAXEC1,0.79,1.55
1146,537765,1173221,2015,2015-06-25T13:19:19.420Z,45.9443,-129.9843,0.92,0.0,OOAXEC3,0.43,0.9
1147,537766,1173221,2015,2015-06-25T13:19:19.420Z,45.9443,-129.9843,0.92,0.0,OOAXEC2,0.39,0.89
1148,537767,1173221,2015,2015-06-25T13:19:19.420Z,45.9443,-129.9843,0.92,0.0,OOAXEC1,0.35,0.78
1149,537768,1173222,2015,2015-06-25T13:33:12.530Z,45.9613,-129.9928,0.35,0.0,OOAXEC3,0.87,1.73
1150,537769,1173222,2015,2015-06-25T13:33:12.530Z,45.9613,-129.9928,0.35,0.0,OOAXEC2,0.83,1.79
1151,537770,1173222,2015,2015-06-25T13:33:12.530Z,45.9613,-129.9928,0.35,0.0,OOAXCC1,0.54,1.21
1152,537771,1173222,2015,2015-06-25T13:33:12.530Z,45.9613,-129.9928,0.35,0.0,OOAXEC1,0.64,1.31
1153,537772,1173223,2015,2015-06-25T15:53:16.850Z,45.9515,-130.001,0.71,0.0,OOAXEC3,0.86,1.3
1154,537773,1173223,2015,2015-06-25T15:53:16.850Z,45.9515,-130.001,0.71,0.0,OOAXCC1,0.14,0.79
1155,537774,1173223,2015,2015-06-25T15:53:16.850Z,45.9515,-130.001,0.71,0.0,OOAXEC1,0.62,0.93
1156,537775,1173224,2015,2015-06-25T16:10:46.480Z,45.961,-129.996,1.95,0.0,OOAXEC3,0.85,1.63
1157,537776,1173224,2015,2015-06-25T16:10:46.480Z,45.961,-129.996,1.95,0.0,OOAXEC2,0.83,1.59
1158,537777,1173224,2015,2015-06-25T16:10:46.480Z,45.961,-129.996,1.95,0.0,OOAXCC1,0.54,1.15
1159,537778,1173224,2015,2015-06-25T16:10:46.480Z,45.961,-129.996,1.95,0.0,OOAXEC1,0.65,1.26
1160,537779,1173225,2015,2015-06-25T16:42:11.160Z,45.9632,-129.9918,1.0,0.0,OOAXEC3,0.81,1.69
1161,537780,1173225,2015,2015-06-25T16:42:11.160Z,45.9632,-129.9918,1.0,0.0,OOAXEC2,0.79,1.33
1162,537781,1173225,2015,2015-06-25T16:42:11.160Z,45.9632,-129.9918,1.0,0.0,OOAXCC1,0.51,1.15
1163,537782,1173225,2015,2015-06-25T16:42:11.160Z,45.9632,-129.9918,1.0,0.0,OOAXEC1,0.6,1.31
1164,537783,1173226,2015,2015-06-25T18:09:19.270Z,45.9072,-129.962,1.3,0.0,OOAXAS1,0.44,0.66
1165,537784,1173226,2015,2015-06-25T18:09:19.270Z,45.9072,-129.962,1.3,0.0,OOAXCC1,1.4,2.77
1166,537785,1173227,2015,2015-06-25T19:09:16.090Z,45.965,-129.9937,1.9,0.0,OOAXEC3,0.88,1.73
1167,537786,1173227,2015,2015-06-25T19:09:16.090Z,45.965,-129.9937,1.9,0.0,OOAXCC1,0.62,1.21
1168,537787,1173228,2015,2015-06-25T20:42:55.910Z,45.978,-129.9998,3.35,0.0,OOAXAS2,1.42,2.29
1169,537788,1173228,2015,2015-06-25T20:42:55.910Z,45.978,-129.9998,3.35,0.0,OOAXEC3,1.24,2.31
1170,537789,1173228,2015,2015-06-25T20:42:55.910Z,45.978,-129.9998,3.35,0.0,OOAXEC2,1.18,2.25
1171,537790,1173228,2015,2015-06-25T20:42:55.910Z,45.978,-129.9998,3.35,0.0,OOAXAS1,1.92,2.96
1172,537791,1173228,2015,2015-06-25T20:42:55.910Z,45.978,-129.9998,3.35,0.0,OOAXCC1,0.9,1.76
1173,537792,1173228,2015,2015-06-25T20:42:55.910Z,45.978,-129.9998,3.35,0.0,OOAXEC1,1.0,1.93
1174,537793,1173229,2015,2015-06-25T20:51:46.590Z,45.9445,-129.9842,1.18,0.0,OOAXEC3,0.43,0.9
1175,537794,1173229,2015,2015-06-25T20:51:46.590Z,45.9445,-129.9842,1.18,0.0,OOAXEC1,0.36,0.76
1176,537795,1173230,2015,2015-06-26T00:54:55.390Z,45.9508,-129.9912,0.87,0.0,OOAXEC3,0.6,1.21
1177,537796,1173230,2015,2015-06-26T00:54:55.390Z,45.9508,-129.9912,0.87,0.0,OOAXEC2,0.58,1.22
1178,537797,1173230,2015,2015-06-26T00:54:55.390Z,45.9508,-129.9912,0.87,0.0,OOAXCC1,0.46,1.07
1179,537798,1173230,2015,2015-06-26T00:54:55.390Z,45.9508,-129.9912,0.87,0.0,OOAXEC1,0.4,0.85
1180,537799,1173231,2015,2015-06-26T03:22:03.020Z,45.9293,-130.0118,1.24,0.0,OOAXAS2,0.27,0.46
1181,537800,1173231,2015,2015-06-26T03:22:03.020Z,45.9293,-130.0118,1.24,0.0,OOAXEC3,0.71,1.31
1182,537801,1173231,2015,2015-06-26T03:22:03.020Z,45.9293,-130.0118,1.24,0.0,OOAXEC2,0.79,1.46
1183,537802,1173231,2015,2015-06-26T03:22:03.020Z,45.9293,-130.0118,1.24,0.0,OOAXAS1,0.43,0.96
1184,537803,1173231,2015,2015-06-26T03:22:03.020Z,45.9293,-130.0118,1.24,0.0,OOAXCC1,-1.07,1.36
1185,537804,1173231,2015,2015-06-26T03:22:03.020Z,45.9293,-130.0118,1.24,0.0,OOAXEC1,0.82,1.63
1186,537805,1173232,2015,2015-06-26T03:43:53.060Z,45.9442,-129.984,0.8,0.0,OOAXEC3,0.47,0.86
1187,537806,1173232,2015,2015-06-26T03:43:53.060Z,45.9442,-129.984,0.8,0.0,OOAXEC1,0.35,0.76
1188,537807,1173233,2015,2015-06-26T04:37:53.390Z,45.9435,-129.982,1.21,0.0,OOAXEC3,0.43,0.89
1189,537808,1173233,2015,2015-06-26T04:37:53.390Z,45.9435,-129.982,1.21,0.0,OOAXEC2,0.4,0.87
1190,537809,1173233,2015,2015-06-26T04:37:53.390Z,45.9435,-129.982,1.21,0.0,OOAXAS1,0.57,1.17
1191,537810,1173233,2015,2015-06-26T04:37:53.390Z,45.9435,-129.982,1.21,0.0,OOAXEC1,0.4,0.85
1192,537811,1173234,2015,2015-06-26T09:52:23.050Z,45.9625,-129.9957,2.31,0.0,OOAXCC1,0.62,1.23
1193,537812,1173234,2015,2015-06-26T09:52:23.050Z,45.9625,-129.9957,2.31,0.0,OOAXEC1,0.68,1.36
1194,537813,1173235,2015,2015-06-26T18:36:13.390Z,45.9658,-129.9923,1.85,0.0,OOAXAS2,1.08,1.86
1195,537814,1173235,2015,2015-06-26T18:36:13.390Z,45.9658,-129.9923,1.85,0.0,OOAXEC3,0.88,1.74
1196,537815,1173235,2015,2015-06-26T18:36:13.390Z,45.9658,-129.9923,1.85,0.0,OOAXEC2,0.85,1.64
1197,537816,1173235,2015,2015-06-26T18:36:13.390Z,45.9658,-129.9923,1.85,0.0,OOAXCC1,0.58,1.24
1198,537817,1173235,2015,2015-06-26T18:36:13.390Z,45.9658,-129.9923,1.85,0.0,OOAXEC1,0.67,1.37
1199,537818,1173236,2015,2015-06-26T19:45:48.480Z,45.9413,-129.9808,1.04,0.0,OOAXEC3,0.37,0.8
1200,537819,1173236,2015,2015-06-26T19:45:48.480Z,45.9413,-129.9808,1.04,0.0,OOAXEC2,0.33,0.75
1201,537820,1173236,2015,2015-06-26T19:45:48.480Z,45.9413,-129.9808,1.04,0.0,OOAXAS1,0.54,1.12
1202,537821,1173236,2015,2015-06-26T19:45:48.480Z,45.9413,-129.9808,1.04,0.0,OOAXEC1,0.45,0.86
1203,537822,1173237,2015,2015-06-26T21:00:20.920Z,45.9515,-129.9953,0.8,0.0,OOAXEC3,0.73,1.29
1204,537823,1173237,2015,2015-06-26T21:00:20.920Z,45.9515,-129.9953,0.8,0.0,OOAXEC2,0.61,1.23
1205,537824,1173237,2015,2015-06-26T21:00:20.920Z,45.9515,-129.9953,0.8,0.0,OOAXCC1,0.39,0.94
1206,537825,1173237,2015,2015-06-26T21:00:20.920Z,45.9515,-129.9953,0.8,0.0,OOAXEC1,0.45,0.98
1207,537826,1173238,2015,2015-06-26T21:28:30.370Z,45.9423,-129.9832,0.95,0.0,OOAXEC3,0.47,0.77
1208,537827,1173238,2015,2015-06-26T21:28:30.370Z,45.9423,-129.9832,0.95,0.0,OOAXAS1,0.5,1.09
1209,537828,1173238,2015,2015-06-26T21:28:30.370Z,45.9423,-129.9832,0.95,0.0,OOAXEC1,0.36,0.82
1210,537829,1173239,2015,2015-06-26T23:36:46.990Z,45.9423,-129.9793,1.35,0.0,OOAXEC3,0.41,0.88
1211,537830,1173239,2015,2015-06-26T23:36:46.990Z,45.9423,-129.9793,1.35,0.0,OOAXAS1,0.6,1.2
1212,537831,1173239,2015,2015-06-26T23:36:46.990Z,45.9423,-129.9793,1.35,0.0,OOAXEC1,0.44,0.9
1213,537832,1173240,2015,2015-06-26T23:36:49.220Z,45.958,-129.9922,1.28,0.0,OOAXEC3,0.74,1.44
1214,537833,1173240,2015,2015-06-26T23:36:49.220Z,45.958,-129.9922,1.28,0.0,OOAXEC2,0.71,1.37
1215,537834,1173240,2015,2015-06-26T23:36:49.220Z,45.958,-129.9922,1.28,0.0,OOAXAS1,0.85,1.93
1216,537835,1173240,2015,2015-06-26T23:36:49.220Z,45.958,-129.9922,1.28,0.0,OOAXCC1,0.45,1.05
1217,537836,1173240,2015,2015-06-26T23:36:49.220Z,45.958,-129.9922,1.28,0.0,OOAXEC1,0.51,1.06
1218,537837,1173241,2015,2015-06-27T02:33:44.550Z,45.955,-129.995,1.0,0.0,OOAXAS2,0.84,1.43
1219,537838,1173241,2015,2015-06-27T02:33:44.550Z,45.955,-129.995,1.0,0.0,OOAXEC3,0.67,1.39
1220,537839,1173241,2015,2015-06-27T02:33:44.550Z,45.955,-129.995,1.0,0.0,OOAXEC2,0.64,1.36
1221,537840,1173241,2015,2015-06-27T02:33:44.550Z,45.955,-129.995,1.0,0.0,OOAXCC1,0.36,0.99
1222,537841,1173241,2015,2015-06-27T02:33:44.550Z,45.955,-129.995,1.0,0.0,OOAXEC1,0.44,1.09
1223,537842,1173242,2015,2015-06-27T02:56:02.930Z,45.9558,-129.9918,1.0,0.0,OOAXEC3,0.28,1.37
1224,537843,1173242,2015,2015-06-27T02:56:02.930Z,45.9558,-129.9918,1.0,0.0,OOAXCC1,0.44,1.05
1225,537844,1173242,2015,2015-06-27T02:56:02.930Z,45.9558,-129.9918,1.0,0.0,OOAXEC1,0.45,0.98
1226,537845,1173243,2015,2015-06-27T03:34:13.910Z,45.9753,-130.002,0.26,0.0,OOAXAS2,1.1,2.02
1227,537846,1173243,2015,2015-06-27T03:34:13.910Z,45.9753,-130.002,0.26,0.0,OOAXEC3,1.96,3.01
1228,537847,1173243,2015,2015-06-27T03:34:13.910Z,45.9753,-130.002,0.26,0.0,OOAXCC1,0.72,1.56
1229,537848,1173243,2015,2015-06-27T03:34:13.910Z,45.9753,-130.002,0.26,0.0,OOAXEC1,0.72,1.6
1230,537849,1173245,2015,2015-06-27T07:32:23.380Z,45.9385,-129.9785,1.61,0.0,OOAXAS2,0.81,1.37
1231,537850,1173245,2015,2015-06-27T07:32:23.380Z,45.9385,-129.9785,1.61,0.0,OOAXEC3,0.45,0.92
1232,537851,1173245,2015,2015-06-27T07:32:23.380Z,45.9385,-129.9785,1.61,0.0,OOAXEC2,0.43,0.88
1233,537852,1173245,2015,2015-06-27T07:32:23.380Z,45.9385,-129.9785,1.61,0.0,OOAXAS1,0.64,1.22
1234,537853,1173245,2015,2015-06-27T07:32:23.380Z,45.9385,-129.9785,1.61,0.0,OOAXCC1,0.86,1.57
1235,537854,1173245,2015,2015-06-27T07:32:23.380Z,45.9385,-129.9785,1.61,0.0,OOAXEC1,0.5,0.96
1236,537855,1173245,2015,2015-06-27T07:32:23.380Z,45.9385,-129.9785,1.61,0.0,OOAXID1,0.57,1.0
1237,537856,1173246,2015,2015-06-27T11:09:52.650Z,45.9742,-129.985,3.24,0.0,OOAXEC3,1.22,2.14
1238,537857,1173246,2015,2015-06-27T11:09:52.650Z,45.9742,-129.985,3.24,0.0,OOAXAS1,0.67,2.88
1239,537858,1173246,2015,2015-06-27T11:09:52.650Z,45.9742,-129.985,3.24,0.0,OOAXCC1,0.86,1.81
1240,537859,1173246,2015,2015-06-27T11:09:52.650Z,45.9742,-129.985,3.24,0.0,OOAXEC1,0.96,1.74
1241,537860,1173247,2015,2015-06-27T14:35:52.640Z,45.9445,-129.9823,1.13,0.0,OOAXEC3,0.43,0.91
1242,537861,1173247,2015,2015-06-27T14:35:52.640Z,45.9445,-129.9823,1.13,0.0,OOAXEC2,0.41,0.87
1243,537862,1173247,2015,2015-06-27T14:35:52.640Z,45.9445,-129.9823,1.13,0.0,OOAXAS1,0.57,1.17
1244,537863,1173247,2015,2015-06-27T14:35:52.640Z,45.9445,-129.9823,1.13,0.0,OOAXEC1,0.37,0.81
1245,537864,1173248,2015,2015-06-27T14:51:51.330Z,45.9437,-129.982,0.2,0.0,OOAXEC3,0.38,0.86
1246,537865,1173248,2015,2015-06-27T14:51:51.330Z,45.9437,-129.982,0.2,0.0,OOAXEC1,0.28,0.7
1247,537866,1173249,2015,2015-06-27T15:37:04.470Z,45.945,-129.9963,1.0,0.0,OOAXAS1,0.56,1.16
1248,537867,1173249,2015,2015-06-27T15:37:04.470Z,45.945,-129.9963,1.0,0.0,OOAXCC1,0.64,1.09
1249,537868,1173250,2015,2015-06-27T16:34:14.620Z,45.9573,-129.9908,1.96,0.0,OOAXEC3,0.6,1.5
1250,537869,1173250,2015,2015-06-27T16:34:14.620Z,45.9573,-129.9908,1.96,0.0,OOAXEC2,0.77,1.42
1251,537870,1173250,2015,2015-06-27T16:34:14.620Z,45.9573,-129.9908,1.96,0.0,OOAXCC1,0.59,1.17
1252,537871,1173250,2015,2015-06-27T16:34:14.620Z,45.9573,-129.9908,1.96,0.0,OOAXEC1,0.61,1.11
1253,537872,1173251,2015,2015-06-27T16:39:07.820Z,45.9512,-129.9833,1.52,0.0,OOAXEC3,-0.01,1.18
1254,537873,1173251,2015,2015-06-27T16:39:07.820Z,45.9512,-129.9833,1.52,0.0,OOAXCC1,0.61,1.28
1255,537874,1173251,2015,2015-06-27T16:39:07.820Z,45.9512,-129.9833,1.52,0.0,OOAXEC1,0.43,0.86
1256,537875,1173252,2015,2015-06-27T17:01:02.890Z,45.9668,-129.9942,2.07,0.0,OOAXAS2,1.04,1.86
1257,537876,1173252,2015,2015-06-27T17:01:02.890Z,45.9668,-129.9942,2.07,0.0,OOAXAS1,1.13,2.5
1258,537877,1173252,2015,2015-06-27T17:01:02.890Z,45.9668,-129.9942,2.07,0.0,OOAXCC1,0.51,1.38
1259,537878,1173252,2015,2015-06-27T17:01:02.890Z,45.9668,-129.9942,2.07,0.0,OOAXEC1,0.54,1.42
1260,537879,1173253,2015,2015-06-27T18:47:12.600Z,45.9433,-129.9877,0.1,0.0,OOAXEC3,-0.05,1.08
1261,537880,1173253,2015,2015-06-27T18:47:12.600Z,45.9433,-129.9877,0.1,0.0,OOAXEC1,0.31,0.98
1262,537881,1173254,2015,2015-06-27T18:57:23.340Z,45.951,-129.9917,0.94,0.0,OOAXCC1,0.45,1.05
1263,537882,1173254,2015,2015-06-27T18:57:23.340Z,45.951,-129.9917,0.94,0.0,OOAXEC1,0.41,0.87
1264,537883,1173255,2015,2015-06-27T20:12:41.930Z,46.014,-130.079,0.83,0.0,OOAXEC2,2.96,4.21
1265,537884,1173255,2015,2015-06-27T20:12:41.930Z,46.014,-130.079,0.83,0.0,OOAXCC1,1.1,1.97
1266,537885,1173256,2015,2015-06-27T20:12:50.500Z,46.02,-130.0517,0.01,0.0,OOAXEC3,2.61,5.0
1267,537886,1173256,2015,2015-06-27T20:12:50.500Z,46.02,-130.0517,0.01,0.0,OOAXEC2,2.43,4.81
1268,537887,1173256,2015,2015-06-27T20:12:50.500Z,46.02,-130.0517,0.01,0.0,OOAXAS1,2.73,2.73
1269,537888,1173256,2015,2015-06-27T20:12:50.500Z,46.02,-130.0517,0.01,0.0,OOAXCC1,1.44,2.95
1270,537889,1173256,2015,2015-06-27T20:12:50.500Z,46.02,-130.0517,0.01,0.0,OOAXEC1,1.76,3.13
1271,537890,1173257,2015,2015-06-27T20:13:07.940Z,45.9955,-130.0453,0.69,0.0,OOAXAS2,3.63,5.23
1272,537891,1173257,2015,2015-06-27T20:13:07.940Z,45.9955,-130.0453,0.69,0.0,OOAXEC3,2.23,3.46
1273,537892,1173257,2015,2015-06-27T20:13:07.940Z,45.9955,-130.0453,0.69,0.0,OOAXEC2,2.05,3.31
1274,537893,1173257,2015,2015-06-27T20:13:07.940Z,45.9955,-130.0453,0.69,0.0,OOAXAS1,2.35,3.56
