,Unnamed: 0,id,year,datetime,lat,lon,dep,mag,station,p_arrival_time,s_arrival_time
427,537046,1173010,2015,2015-06-07T08:31:21.350Z,45.9522,-129.987,1.58,0.0,OOAXEC3,0.62,1.24
428,537047,1173010,2015,2015-06-07T08:31:21.350Z,45.9522,-129.987,1.58,0.0,OOAXCC1,0.58,1.19
429,537048,1173010,2015,2015-06-07T08:31:21.350Z,45.9522,-129.987,1.58,0.0,OOAXEC1,0.45,0.92
430,537049,1173011,2015,2015-06-07T09:01:00.660Z,45.9298,-129.988,0.25,0.0,OOAXAS1,0.45,0.46
431,537050,1173012,2015,2015-06-07T15:08:15.910Z,45.9677,-129.9973,2.36,0.0,OOAXAS2,1.04,1.92
432,537051,1173012,2015,2015-06-07T15:08:15.910Z,45.9677,-129.9973,2.36,0.0,OOAXEC1,0.76,1.51
433,537052,1173013,2015,2015-06-07T16:19:27.020Z,45.9763,-129.9938,2.27,0.0,OOAXAS2,1.19,2.08
434,537053,1173013,2015,2015-06-07T16:19:27.020Z,45.9763,-129.9938,2.27,0.0,OOAXEC3,1.23,2.06
435,537054,1173013,2015,2015-06-07T16:19:27.020Z,45.9763,-129.9938,2.27,0.0,OOAXEC2,1.12,2.02
436,537055,1173013,2015,2015-06-07T16:19:27.020Z,45.9763,-129.9938,2.27,0.0,OOAXAS1,1.4,2.35
437,537056,1173013,2015,2015-06-07T16:19:27.020Z,45.9763,-129.9938,2.27,0.0,OOAXCC1,0.7,1.69
438,537057,1173013,2015,2015-06-07T16:19:27.020Z,45.9763,-129.9938,2.27,0.0,OOAXEC1,0.81,1.71
439,537058,1173014,2015,2015-06-07T17:21:26.350Z,45.9588,-129.9917,1.55,0.0,OOAXEC3,0.87,1.48
440,537059,1173014,2015,2015-06-07T17:21:26.350Z,45.9588,-129.9917,1.55,0.0,OOAXEC2,0.72,1.38
441,537060,1173014,2015,2015-06-07T17:21:26.350Z,45.9588,-129.9917,1.55,0.0,OOAXCC1,0.51,1.09
442,537061,1173014,2015,2015-06-07T17:21:26.350Z,45.9588,-129.9917,1.55,0.0,OOAXEC1,0.56,1.11
443,537062,1173015,2015,2015-06-07T17:47:19.010Z,45.9703,-129.9918,3.34,0.0,OOAXAS2,1.2,2.07
444,537063,1173015,2015,2015-06-07T17:47:19.010Z,45.9703,-129.9918,3.34,0.0,OOAXEC3,1.21,2.02
445,537064,1173015,2015,2015-06-07T17:47:19.010Z,45.9703,-129.9918,3.34,0.0,OOAXEC2,1.05,1.98
446,537065,1173015,2015,2015-06-07T17:47:19.010Z,45.9703,-129.9918,3.34,0.0,OOAXAS1,1.56,2.83
447,537066,1173015,2015,2015-06-07T17:47:19.010Z,45.9703,-129.9918,3.34,0.0,OOAXCC1,0.72,1.75
448,537067,1173015,2015,2015-06-07T17:47:19.010Z,45.9703,-129.9918,3.34,0.0,OOAXEC1,0.81,1.67
449,537068,1173016,2015,2015-06-07T18:28:16.600Z,45.9425,-129.985,0.02,0.0,OOAXEC3,0.11,1.17
450,537069,1173016,2015,2015-06-07T18:28:16.600Z,45.9425,-129.985,0.02,0.0,OOAXEC1,0.34,1.16
451,537070,1173017,2015,2015-06-07T18:45:28.820Z,45.9558,-129.9882,1.34,0.0,OOAXEC3,0.7,1.29
452,537071,1173017,2015,2015-06-07T18:45:28.820Z,45.9558,-129.9882,1.34,0.0,OOAXEC2,0.68,1.26
453,537072,1173017,2015,2015-06-07T18:45:28.820Z,45.9558,-129.9882,1.34,0.0,OOAXCC1,0.55,1.1
454,537073,1173017,2015,2015-06-07T18:45:28.820Z,45.9558,-129.9882,1.34,0.0,OOAXEC1,0.47,0.95
455,537074,1173018,2015,2015-06-07T20:37:22.710Z,45.929,-129.9845,0.33,0.0,OOAXID1,-0.22,2.41
456,537075,1173019,2015,2015-06-07T21:30:05.480Z,45.9623,-129.996,2.14,0.0,OOAXCC1,0.59,1.2
457,537076,1173019,2015,2015-06-07T21:30:05.480Z,45.9623,-129.996,2.14,0.0,OOAXEC1,0.68,1.33
458,537077,1173020,2015,2015-06-07T22:00:07.680Z,45.9453,-129.9493,0.02,0.0,OOAXAS2,2.19,3.39
459,537078,1173020,2015,2015-06-07T22:00:07.680Z,45.9453,-129.9493,0.02,0.0,OOAXEC3,-0.5,0.6
460,537079,1173020,2015,2015-06-07T22:00:07.680Z,45.9453,-129.9493,0.02,0.0,OOAXCC1,0.97,3.17
461,537080,1173020,2015,2015-06-07T22:00:07.680Z,45.9453,-129.9493,0.02,0.0,OOAXEC1,-0.45,0.64
462,537081,1173021,2015,2015-06-07T23:16:03.600Z,45.9732,-129.9978,2.27,0.0,OOAXEC3,1.06,2.06
463,537082,1173021,2015,2015-06-07T23:16:03.600Z,45.9732,-129.9978,2.27,0.0,OOAXEC2,1.04,1.89
464,537083,1173021,2015,2015-06-07T23:16:03.600Z,45.9732,-129.9978,2.27,0.0,OOAXAS1,1.55,2.73
465,537084,1173021,2015,2015-06-07T23:16:03.600Z,45.9732,-129.9978,2.27,0.0,OOAXCC1,0.73,1.41
466,537085,1173021,2015,2015-06-07T23:16:03.600Z,45.9732,-129.9978,2.27,0.0,OOAXEC1,0.83,1.63
467,537086,1173022,2015,2015-06-07T23:53:23.140Z,45.9603,-130.088,0.73,0.0,OOAXAS2,1.45,2.67
468,537087,1173022,2015,2015-06-07T23:53:23.140Z,45.9603,-130.088,0.73,0.0,OOAXAS1,2.12,3.21
469,537088,1173022,2015,2015-06-07T23:53:23.140Z,45.9603,-130.088,0.73,0.0,OOAXCC1,1.46,2.63
470,537089,1173023,2015,2015-06-07T23:53:38.370Z,45.9947,-130.1755,0.88,0.0,OOAXAS2,3.24,5.87
471,537090,1173023,2015,2015-06-07T23:53:38.370Z,45.9947,-130.1755,0.88,0.0,OOAXAS1,2.7,5.35
472,537091,1173023,2015,2015-06-07T23:53:38.370Z,45.9947,-130.1755,0.88,0.0,OOAXCC1,2.03,4.68
473,537092,1173023,2015,2015-06-07T23:53:38.370Z,45.9947,-130.1755,0.88,0.0,OOAXEC1,3.41,5.8
474,537093,1173024,2015,2015-06-07T23:54:22.370Z,45.948,-130.0138,0.8,0.0,OOAXAS1,0.47,0.47
475,537094,1173024,2015,2015-06-07T23:54:22.370Z,45.948,-130.0138,0.8,0.0,OOAXCC1,-0.21,-0.2
476,537095,1173025,2015,2015-06-08T01:17:51.350Z,45.9623,-130.0003,0.51,0.0,OOAXAS1,1.26,2.5
477,537096,1173025,2015,2015-06-08T01:17:51.350Z,45.9623,-130.0003,0.51,0.0,OOAXCC1,0.45,0.97
478,537097,1173025,2015,2015-06-08T01:17:51.350Z,45.9623,-130.0003,0.51,0.0,OOAXEC1,0.64,1.43
479,537098,1173026,2015,2015-06-08T01:19:21.690Z,45.9732,-129.9968,2.58,0.0,OOAXAS2,1.2,2.07
480,537099,1173026,2015,2015-06-08T01:19:21.690Z,45.9732,-129.9968,2.58,0.0,OOAXEC3,1.09,2.08
481,537100,1173026,2015,2015-06-08T01:19:21.690Z,45.9732,-129.9968,2.58,0.0,OOAXEC2,1.08,1.96
482,537101,1173026,2015,2015-06-08T01:19:21.690Z,45.9732,-129.9968,2.58,0.0,OOAXAS1,1.62,2.78
483,537102,1173026,2015,2015-06-08T01:19:21.690Z,45.9732,-129.9968,2.58,0.0,OOAXCC1,0.68,1.58
484,537103,1173026,2015,2015-06-08T01:19:21.690Z,45.9732,-129.9968,2.58,0.0,OOAXEC1,0.86,1.67
485,537104,1173027,2015,2015-06-08T02:55:14.250Z,45.8142,-129.8755,0.15,0.0,OOAXEC3,3.03,6.05
486,537105,1173027,2015,2015-06-08T02:55:14.250Z,45.8142,-129.8755,0.15,0.0,OOAXAS1,3.1,6.58
487,537106,1173027,2015,2015-06-08T02:55:14.250Z,45.8142,-129.8755,0.15,0.0,OOAXEC1,3.9,6.27
488,537107,1173028,2015,2015-06-08T02:55:30.710Z,45.8878,-129.999,0.74,0.0,OOAXAS2,0.94,2.65
489,537108,1173028,2015,2015-06-08T02:55:30.710Z,45.8878,-129.999,0.74,0.0,OOAXAS1,0.6,2.36
490,537109,1173029,2015,2015-06-08T03:38:14.230Z,45.9637,-129.9938,1.9,0.0,OOAXAS2,1.01,1.76
491,537110,1173029,2015,2015-06-08T03:38:14.230Z,45.9637,-129.9938,1.9,0.0,OOAXEC3,0.85,1.67
492,537111,1173029,2015,2015-06-08T03:38:14.230Z,45.9637,-129.9938,1.9,0.0,OOAXEC2,0.82,1.61
493,537112,1173029,2015,2015-06-08T03:38:14.230Z,45.9637,-129.9938,1.9,0.0,OOAXCC1,0.54,1.19
494,537113,1173029,2015,2015-06-08T03:38:14.230Z,45.9637,-129.9938,1.9,0.0,OOAXEC1,0.64,1.32
495,537114,1173030,2015,2015-06-08T03:43:54.550Z,45.9572,-129.9913,1.0,0.0,OOAXCC1,0.6,0.95
496,537115,1173030,2015,2015-06-08T03:43:54.550Z,45.9572,-129.9913,1.0,0.0,OOAXEC1,0.37,1.01
497,537116,1173031,2015,2015-06-08T05:45:56.060Z,45.9483,-129.988,1.47,0.0,OOAXAS2,0.78,1.27
498,537117,1173031,2015,2015-06-08T05:45:56.060Z,45.9483,-129.988,1.47,0.0,OOAXEC3,0.56,1.08
499,537118,1173031,2015,2015-06-08T05:45:56.060Z,45.9483,-129.988,1.47,0.0,OOAXEC2,0.55,1.06
500,537119,1173031,2015,2015-06-08T05:45:56.060Z,45.9483,-129.988,1.47,0.0,OOAXAS1,0.68,1.32
501,537120,1173031,2015,2015-06-08T05:45:56.060Z,45.9483,-129.988,1.47,0.0,OOAXCC1,0.56,1.2
502,537121,1173031,2015,2015-06-08T05:45:56.060Z,45.9483,-129.988,1.47,0.0,OOAXEC1,0.39,0.92
503,537122,1173032,2015,2015-06-08T06:05:53.330Z,45.9438,-129.981,0.85,0.0,OOAXEC3,0.38,0.87
504,537123,1173032,2015,2015-06-08T06:05:53.330Z,45.9438,-129.981,0.85,0.0,OOAXAS1,0.57,1.14
505,537124,1173032,2015,2015-06-08T06:05:53.330Z,45.9438,-129.981,0.85,0.0,OOAXEC1,0.36,0.74
506,537125,1173033,2015,2015-06-08T08:22:37.000Z,45.9178,-129.9962,0.01,0.0,OOAXEC3,0.28,1.68
507,537126,1173033,2015,2015-06-08T08:22:37.000Z,45.9178,-129.9962,0.01,0.0,OOAXEC2,0.59,1.87
508,537127,1173033,2015,2015-06-08T08:22:37.000Z,45.9178,-129.9962,0.01,0.0,OOAXAS1,-0.67,0.15
509,537128,1173033,2015,2015-06-08T08:22:37.000Z,45.9178,-129.9962,0.01,0.0,OOAXCC1,1.71,2.69
510,537129,1173033,2015,2015-06-08T08:22:37.000Z,45.9178,-129.9962,0.01,0.0,OOAXEC1,1.21,2.31
511,537130,1173033,2015,2015-06-08T08:22:37.000Z,45.9178,-129.9962,0.01,0.0,OOAXID1,-0.37,-0.34
512,537131,1173034,2015,2015-06-08T09:16:42.080Z,45.9753,-129.9953,0.54,0.0,OOAXEC3,1.09,2.28
513,537132,1173034,2015,2015-06-08T09:16:42.080Z,45.9753,-129.9953,0.54,0.0,OOAXCC1,1.06,1.1
514,537133,1173034,2015,2015-06-08T09:16:42.080Z,45.9753,-129.9953,0.54,0.0,OOAXEC1,0.37,1.85
515,537134,1173035,2015,2015-06-08T09:29:48.030Z,45.9525,-130.0557,0.83,0.0,OOAXAS2,0.66,1.65
516,537135,1173035,2015,2015-06-08T09:29:48.030Z,45.9525,-130.0557,0.83,0.0,OOAXEC3,1.76,2.76
517,537136,1173035,2015,2015-06-08T09:29:48.030Z,45.9525,-130.0557,0.83,0.0,OOAXEC2,1.82,2.8
518,537137,1173035,2015,2015-06-08T09:29:48.030Z,45.9525,-130.0557,0.83,0.0,OOAXAS1,1.16,2.08
519,537138,1173035,2015,2015-06-08T09:29:48.030Z,45.9525,-130.0557,0.83,0.0,OOAXCC1,-0.17,-0.13
520,537139,1173035,2015,2015-06-08T09:29:48.030Z,45.9525,-130.0557,0.83,0.0,OOAXEC1,1.19,2.23
521,537140,1173036,2015,2015-06-08T09:30:00.040Z,45.9928,-129.9847,1.1,0.0,OOAXAS2,1.49,2.88
522,537141,1173036,2015,2015-06-08T09:30:00.040Z,45.9928,-129.9847,1.1,0.0,OOAXEC3,1.63,2.57
523,537142,1173036,2015,2015-06-08T09:30:00.040Z,45.9928,-129.9847,1.1,0.0,OOAXEC2,1.63,2.63
524,537143,1173036,2015,2015-06-08T09:30:00.040Z,45.9928,-129.9847,1.1,0.0,OOAXCC1,-0.31,-0.32
525,537144,1173036,2015,2015-06-08T09:30:00.040Z,45.9928,-129.9847,1.1,0.0,OOAXEC1,1.01,2.07
526,537145,1173037,2015,2015-06-08T09:37:36.210Z,45.9325,-129.963,0.02,0.0,OOAXAS2,1.62,2.54
527,537146,1173037,2015,2015-06-08T09:37:36.210Z,45.9325,-129.963,0.02,0.0,OOAXEC3,0.04,1.41
528,537147,1173037,2015,2015-06-08T09:37:36.210Z,45.9325,-129.963,0.02,0.0,OOAXEC2,0.04,1.28
529,537148,1173037,2015,2015-06-08T09:37:36.210Z,45.9325,-129.963,0.02,0.0,OOAXAS1,0.86,1.94
530,537149,1173037,2015,2015-06-08T09:37:36.210Z,45.9325,-129.963,0.02,0.0,OOAXEC1,0.74,1.88
531,537150,1173038,2015,2015-06-08T09:37:48.300Z,45.9287,-129.9412,0.01,0.0,OOAXAS2,1.29,2.23
532,537151,1173038,2015,2015-06-08T09:37:48.300Z,45.9287,-129.9412,0.01,0.0,OOAXEC2,-0.29,1.09
533,537152,1173038,2015,2015-06-08T09:37:48.300Z,45.9287,-129.9412,0.01,0.0,OOAXCC1,2.59,4.01
534,537153,1173038,2015,2015-06-08T09:37:48.300Z,45.9287,-129.9412,0.01,0.0,OOAXEC1,0.43,1.56
535,537154,1173039,2015,2015-06-08T09:38:05.970Z,45.9347,-129.9548,0.01,0.0,OOAXCC1,1.2,2.61
536,537155,1173039,2015,2015-06-08T09:38:05.970Z,45.9347,-129.9548,0.01,0.0,OOAXEC1,-0.95,0.14
537,537156,1173040,2015,2015-06-08T09:48:22.020Z,45.9355,-129.967,0.02,0.0,OOAXEC3,-0.21,0.86
538,537157,1173040,2015,2015-06-08T09:48:22.020Z,45.9355,-129.967,0.02,0.0,OOAXCC1,1.4,2.65
539,537158,1173040,2015,2015-06-08T09:48:22.020Z,45.9355,-129.967,0.02,0.0,OOAXEC1,0.47,1.75
540,537159,1173041,2015,2015-06-08T10:44:16.550Z,45.9775,-129.9873,1.41,0.0,OOAXEC3,1.1,2.03
541,537160,1173041,2015,2015-06-08T10:44:16.550Z,45.9775,-129.9873,1.41,0.0,OOAXEC2,1.07,2.0
542,537161,1173041,2015,2015-06-08T10:44:16.550Z,45.9775,-129.9873,1.41,0.0,OOAXCC1,0.77,2.82
543,537162,1173041,2015,2015-06-08T10:44:16.550Z,45.9775,-129.9873,1.41,0.0,OOAXEC1,0.87,1.61
544,537163,1173042,2015,2015-06-08T11:02:02.530Z,45.9338,-130.0448,0.34,0.0,OOAXAS2,-0.48,0.42
545,537164,1173042,2015,2015-06-08T11:02:02.530Z,45.9338,-130.0448,0.34,0.0,OOAXEC3,1.96,3.21
546,537165,1173042,2015,2015-06-08T11:02:02.530Z,45.9338,-130.0448,0.34,0.0,OOAXAS1,1.0,1.0
547,537166,1173042,2015,2015-06-08T11:02:02.530Z,45.9338,-130.0448,0.34,0.0,OOAXCC1,0.37,1.21
548,537167,1173042,2015,2015-06-08T11:02:02.530Z,45.9338,-130.0448,0.34,0.0,OOAXEC1,2.14,3.31
549,537168,1173043,2015,2015-06-08T11:35:27.520Z,45.9447,-129.9892,0.81,0.0,OOAXEC3,0.51,0.96
550,537169,1173043,2015,2015-06-08T11:35:27.520Z,45.9447,-129.9892,0.81,0.0,OOAXEC2,0.48,0.96
551,537170,1173043,2015,2015-06-08T11:35:27.520Z,45.9447,-129.9892,0.81,0.0,OOAXCC1,0.6,1.1
552,537171,1173043,2015,2015-06-08T11:35:27.520Z,45.9447,-129.9892,0.81,0.0,OOAXEC1,0.4,0.86
553,537172,1173044,2015,2015-06-08T12:00:17.980Z,45.9423,-130.0003,0.8,0.0,OOAXEC3,0.17,0.22
554,537173,1173045,2015,2015-06-08T12:15:17.050Z,45.9768,-129.9733,1.66,0.0,OOAXEC3,1.17,2.0
555,537174,1173045,2015,2015-06-08T12:15:17.050Z,45.9768,-129.9733,1.66,0.0,OOAXEC2,0.96,1.94
556,537175,1173045,2015,2015-06-08T12:15:17.050Z,45.9768,-129.9733,1.66,0.0,OOAXCC1,0.99,1.69
557,537176,1173045,2015,2015-06-08T12:15:17.050Z,45.9768,-129.9733,1.66,0.0,OOAXEC1,0.75,1.65
558,537177,1173046,2015,2015-06-08T13:30:36.830Z,45.9262,-130.0655,0.27,0.0,OOAXAS2,0.72,1.58
559,537178,1173046,2015,2015-06-08T13:30:36.830Z,45.9262,-130.0655,0.27,0.0,OOAXEC3,1.56,3.64
560,537179,1173046,2015,2015-06-08T13:30:36.830Z,45.9262,-130.0655,0.27,0.0,OOAXEC2,2.42,3.65
561,537180,1173046,2015,2015-06-08T13:30:36.830Z,45.9262,-130.0655,0.27,0.0,OOAXAS1,1.08,1.92
562,537181,1173047,2015,2015-06-08T13:30:49.840Z,45.9632,-130.0353,0.0,0.0,OOAXAS2,1.29,2.08
563,537182,1173047,2015,2015-06-08T13:30:49.840Z,45.9632,-130.0353,0.0,0.0,OOAXEC3,2.13,2.93
564,537183,1173047,2015,2015-06-08T13:30:49.840Z,45.9632,-130.0353,0.0,0.0,OOAXEC2,2.07,4.16
565,537184,1173047,2015,2015-06-08T13:30:49.840Z,45.9632,-130.0353,0.0,0.0,OOAXAS1,1.66,2.45
566,537185,1173047,2015,2015-06-08T13:30:49.840Z,45.9632,-130.0353,0.0,0.0,OOAXCC1,0.13,1.18
567,537186,1173047,2015,2015-06-08T13:30:49.840Z,45.9632,-130.0353,0.0,0.0,OOAXEC1,1.45,2.3
568,537187,1173048,2015,2015-06-08T13:31:09.250Z,45.9133,-130.0773,0.67,0.0,OOAXAS2,1.04,1.92
569,537188,1173048,2015,2015-06-08T13:31:09.250Z,45.9133,-130.0773,0.67,0.0,OOAXEC2,1.84,2.7
570,537189,1173048,2015,2015-06-08T13:31:09.250Z,45.9133,-130.0773,0.67,0.0,OOAXAS1,1.36,2.2
571,537190,1173048,2015,2015-06-08T13:31:09.250Z,45.9133,-130.0773,0.67,0.0,OOAXCC1,-0.12,0.92
572,537191,1173048,2015,2015-06-08T13:31:09.250Z,45.9133,-130.0773,0.67,0.0,OOAXEC1,2.06,3.42
573,537192,1173049,2015,2015-06-08T13:31:21.810Z,45.9708,-130.0402,0.0,0.0,OOAXAS2,1.62,2.45
574,537193,1173049,2015,2015-06-08T13:31:21.810Z,45.9708,-130.0402,0.0,0.0,OOAXAS1,1.9,2.78
575,537194,1173049,2015,2015-06-08T13:31:21.810Z,45.9708,-130.0402,0.0,0.0,OOAXCC1,0.48,1.49
576,537195,1173049,2015,2015-06-08T13:31:21.810Z,45.9708,-130.0402,0.0,0.0,OOAXEC1,1.78,2.66
577,537196,1173050,2015,2015-06-08T14:47:20.570Z,45.9358,-129.9655,0.01,0.0,OOAXEC1,-0.47,1.62
578,537197,1173051,2015,2015-06-08T15:37:20.670Z,45.9582,-130.0217,0.01,0.0,OOAXCC1,0.22,1.0
579,537198,1173051,2015,2015-06-08T15:37:20.670Z,45.9582,-130.0217,0.01,0.0,OOAXEC1,1.1,1.11
580,537199,1173052,2015,2015-06-08T15:38:56.880Z,45.9523,-129.9808,1.51,0.0,OOAXEC3,0.62,1.21
581,537200,1173052,2015,2015-06-08T15:38:56.880Z,45.9523,-129.9808,1.51,0.0,OOAXCC1,0.65,1.33
582,537201,1173052,2015,2015-06-08T15:38:56.880Z,45.9523,-129.9808,1.51,0.0,OOAXEC1,0.43,0.86
583,537202,1173053,2015,2015-06-08T16:08:17.600Z,45.9907,-129.9822,0.73,0.0,OOAXAS2,1.37,2.32
584,537203,1173053,2015,2015-06-08T16:08:17.600Z,45.9907,-129.9822,0.73,0.0,OOAXEC3,1.26,2.25
585,537204,1173053,2015,2015-06-08T16:08:17.600Z,45.9907,-129.9822,0.73,0.0,OOAXEC2,1.22,2.18
586,537205,1173053,2015,2015-06-08T16:08:17.600Z,45.9907,-129.9822,0.73,0.0,OOAXAS1,1.55,3.02
587,537206,1173053,2015,2015-06-08T16:08:17.600Z,45.9907,-129.9822,0.73,0.0,OOAXCC1,0.93,1.99
588,537207,1173053,2015,2015-06-08T16:08:17.600Z,45.9907,-129.9822,0.73,0.0,OOAXEC1,1.03,1.88
589,537208,1173053,2015,2015-06-08T16:08:17.600Z,45.9907,-129.9822,0.73,0.0,OOAXID1,1.89,3.04
590,537209,1173054,2015,2015-06-08T16:49:28.760Z,45.9948,-130.0925,1.03,0.0,OOAXAS2,0.4,1.27
591,537210,1173054,2015,2015-06-08T16:49:28.760Z,45.9948,-130.0925,1.03,0.0,OOAXEC3,3.35,4.71
592,537211,1173054,2015,2015-06-08T16:49:28.760Z,45.9948,-130.0925,1.03,0.0,OOAXAS1,1.63,4.27
593,537212,1173054,2015,2015-06-08T16:49:28.760Z,45.9948,-130.0925,1.03,0.0,OOAXCC1,0.33,1.72
594,537213,1173055,2015,2015-06-08T19:08:21.050Z,45.9738,-130.0032,1.24,0.0,OOAXEC3,1.18,2.09
595,537214,1173055,2015,2015-06-08T19:08:21.050Z,45.9738,-130.0032,1.24,0.0,OOAXEC2,0.98,1.96
596,537215,1173055,2015,2015-06-08T19:08:21.050Z,45.9738,-130.0032,1.24,0.0,OOAXCC1,0.66,1.22
597,537216,1173055,2015,2015-06-08T19:08:21.050Z,45.9738,-130.0032,1.24,0.0,OOAXEC1,0.78,1.67
598,537217,1173056,2015,2015-06-08T20:27:38.140Z,45.9445,-129.9803,1.09,0.0,OOAXEC3,-0.17,0.85
599,537218,1173056,2015,2015-06-08T20:27:38.140Z,45.9445,-129.9803,1.09,0.0,OOAXAS1,0.59,1.34
600,537219,1173056,2015,2015-06-08T20:27:38.140Z,45.9445,-129.9803,1.09,0.0,OOAXEC1,0.45,0.77
601,537220,1173057,2015,2015-06-08T20:56:55.030Z,45.9435,-129.9838,0.36,0.0,OOAXEC3,0.41,0.84
602,537221,1173057,2015,2015-06-08T20:56:55.030Z,45.9435,-129.9838,0.36,0.0,OOAXAS1,0.56,1.32
603,537222,1173057,2015,2015-06-08T20:56:55.030Z,45.9435,-129.9838,0.36,0.0,OOAXEC1,0.31,0.74
604,537223,1173058,2015,2015-06-08T20:59:15.750Z,45.923,-130.0113,0.01,0.0,OOAXAS1,-0.4,0.49
605,537224,1173058,2015,2015-06-08T20:59:15.750Z,45.923,-130.0113,0.01,0.0,OOAXEC1,1.32,2.71
606,537225,1173059,2015,2015-06-08T20:59:37.120Z,45.9317,-130.0783,1.03,0.0,OOAXAS2,0.31,1.44
607,537226,1173059,2015,2015-06-08T20:59:37.120Z,45.9317,-130.0783,1.03,0.0,OOAXEC3,1.89,2.81
608,537227,1173059,2015,2015-06-08T20:59:37.120Z,45.9317,-130.0783,1.03,0.0,OOAXAS1,1.07,1.98
609,537228,1173059,2015,2015-06-08T20:59:37.120Z,45.9317,-130.0783,1.03,0.0,OOAXCC1,0.67,1.68
610,537229,1173059,2015,2015-06-08T20:59:37.120Z,45.9317,-130.0783,1.03,0.0,OOAXEC1,2.77,4.19
611,537230,1173060,2015,2015-06-08T21:01:59.290Z,45.9558,-130.0323,0.0,0.0,OOAXAS2,0.22,1.01
612,537231,1173060,2015,2015-06-08T21:01:59.290Z,45.9558,-130.0323,0.0,0.0,OOAXAS1,1.48,2.64
613,537232,1173060,2015,2015-06-08T21:01:59.290Z,45.9558,-130.0323,0.0,0.0,OOAXCC1,-0.36,0.38
614,537233,1173060,2015,2015-06-08T21:01:59.290Z,45.9558,-130.0323,0.0,0.0,OOAXEC1,1.82,2.95
615,537234,1173061,2015,2015-06-08T21:02:53.190Z,45.9782,-130.1103,0.7,0.0,OOAXAS2,2.14,3.06
616,537235,1173061,2015,2015-06-08T21:02:53.190Z,45.9782,-130.1103,0.7,0.0,OOAXEC2,4.4,5.35
617,537236,1173061,2015,2015-06-08T21:02:53.190Z,45.9782,-130.1103,0.7,0.0,OOAXCC1,1.48,2.4
618,537237,1173061,2015,2015-06-08T21:02:53.190Z,45.9782,-130.1103,0.7,0.0,OOAXEC1,2.91,3.85
619,537238,1173062,2015,2015-06-08T21:03:14.040Z,45.9522,-130.0322,0.04,0.0,OOAXAS2,1.04,1.09
620,537239,1173062,2015,2015-06-08T21:03:14.040Z,45.9522,-130.0322,0.04,0.0,OOAXEC3,2.26,3.26
621,537240,1173062,2015,2015-06-08T21:03:14.040Z,45.9522,-130.0322,0.04,0.0,OOAXEC2,2.35,3.33
622,537241,1173062,2015,2015-06-08T21:03:14.040Z,45.9522,-130.0322,0.04,0.0,OOAXAS1,0.67,1.52
623,537242,1173062,2015,2015-06-08T21:03:14.040Z,45.9522,-130.0322,0.04,0.0,OOAXCC1,-0.49,0.38
624,537243,1173062,2015,2015-06-08T21:03:14.040Z,45.9522,-130.0322,0.04,0.0,OOAXEC1,0.67,2.93
625,537244,1173063,2015,2015-06-08T22:20:36.850Z,45.9292,-130.0117,0.01,0.0,OOAXAS2,0.35,0.4
626,537245,1173063,2015,2015-06-08T22:20:36.850Z,45.9292,-130.0117,0.01,0.0,OOAXEC3,1.1,3.02
627,537246,1173063,2015,2015-06-08T22:20:36.850Z,45.9292,-130.0117,0.01,0.0,OOAXEC2,1.24,3.06
628,537247,1173063,2015,2015-06-08T22:20:36.850Z,45.9292,-130.0117,0.01,0.0,OOAXAS1,-0.34,0.55
629,537248,1173063,2015,2015-06-08T22:20:36.850Z,45.9292,-130.0117,0.01,0.0,OOAXCC1,0.81,1.52
630,537249,1173063,2015,2015-06-08T22:20:36.850Z,45.9292,-130.0117,0.01,0.0,OOAXEC1,1.28,3.14
631,537250,1173064,2015,2015-06-08T23:44:40.230Z,45.9125,-130.0168,1.22,0.0,OOAXAS2,-0.02,1.23
632,537251,1173064,2015,2015-06-08T23:44:40.230Z,45.9125,-130.0168,1.22,0.0,OOAXEC3,0.66,1.74
633,537252,1173064,2015,2015-06-08T23:44:40.230Z,45.9125,-130.0168,1.22,0.0,OOAXEC1,1.58,2.4
634,537253,1173065,2015,2015-06-09T02:00:39.640Z,45.9345,-130.0378,0.16,0.0,OOAXAS2,0.08,0.14
635,537254,1173065,2015,2015-06-09T02:00:39.640Z,45.9345,-130.0378,0.16,0.0,OOAXEC2,1.93,3.16
636,537255,1173065,2015,2015-06-09T02:00:39.640Z,45.9345,-130.0378,0.16,0.0,OOAXAS1,-0.08,0.68
637,537256,1173065,2015,2015-06-09T02:00:39.640Z,45.9345,-130.0378,0.16,0.0,OOAXEC1,1.79,2.99
638,537257,1173066,2015,2015-06-09T04:17:20.250Z,45.9327,-130.0312,0.01,0.0,OOAXAS2,0.36,1.16
