,Unnamed: 0,id,year,datetime,lat,lon,dep,mag,station,p_arrival_time,s_arrival_time
1275,537894,1173257,2015,2015-06-27T20:13:07.940Z,45.9955,-130.0453,0.69,0.0,OOAXCC1,0.19,1.07
1276,537895,1173258,2015,2015-06-27T21:25:10.940Z,45.9347,-130.0223,1.08,0.0,OOAXAS2,0.21,0.53
1277,537896,1173258,2015,2015-06-27T21:25:10.940Z,45.9347,-130.0223,1.08,0.0,OOAXEC3,0.89,1.64
1278,537897,1173258,2015,2015-06-27T21:25:10.940Z,45.9347,-130.0223,1.08,0.0,OOAXEC2,0.84,1.68
1279,537898,1173258,2015,2015-06-27T21:25:10.940Z,45.9347,-130.0223,1.08,0.0,OOAXAS1,0.72,1.2
1280,537899,1173259,2015,2015-06-28T06:16:18.890Z,45.9492,-129.9922,0.53,0.0,OOAXCC1,0.52,1.12
1281,537900,1173259,2015,2015-06-28T06:16:18.890Z,45.9492,-129.9922,0.53,0.0,OOAXEC1,0.38,0.91
1282,537901,1173260,2015,2015-06-28T06:32:20.990Z,46.0002,-130.0363,0.69,0.0,OOAXCC1,1.3,2.6
1283,537902,1173260,2015,2015-06-28T06:32:20.990Z,46.0002,-130.0363,0.69,0.0,OOAXEC1,1.62,2.94
1284,537903,1173261,2015,2015-06-28T08:36:10.220Z,45.9653,-129.9872,1.0,0.0,OOAXEC3,0.77,1.65
1285,537904,1173261,2015,2015-06-28T08:36:10.220Z,45.9653,-129.9872,1.0,0.0,OOAXCC1,0.73,1.2
1286,537905,1173261,2015,2015-06-28T08:36:10.220Z,45.9653,-129.9872,1.0,0.0,OOAXEC1,0.53,1.26
1287,537906,1173262,2015,2015-06-28T09:36:52.500Z,45.965,-129.988,1.48,0.0,OOAXEC3,1.03,1.64
1288,537907,1173262,2015,2015-06-28T09:36:52.500Z,45.965,-129.988,1.48,0.0,OOAXCC1,2.68,1.26
1289,537908,1173262,2015,2015-06-28T09:36:52.500Z,45.965,-129.988,1.48,0.0,OOAXEC1,0.43,1.24
1290,537909,1173263,2015,2015-06-28T09:41:39.210Z,46.026,-130.028,1.01,0.0,OOAXAS2,2.39,3.84
1291,537910,1173263,2015,2015-06-28T09:41:39.210Z,46.026,-130.028,1.01,0.0,OOAXEC3,2.36,4.08
1292,537911,1173263,2015,2015-06-28T09:41:39.210Z,46.026,-130.028,1.01,0.0,OOAXAS1,2.3,4.07
1293,537912,1173263,2015,2015-06-28T09:41:39.210Z,46.026,-130.028,1.01,0.0,OOAXCC1,0.81,2.4
1294,537913,1173263,2015,2015-06-28T09:41:39.210Z,46.026,-130.028,1.01,0.0,OOAXEC1,1.36,3.11
1295,537914,1173263,2015,2015-06-28T09:41:39.210Z,46.026,-130.028,1.01,0.0,OOAXID1,3.3,4.85
1296,537915,1173264,2015,2015-06-28T10:30:23.680Z,45.9053,-130.024,1.41,0.0,OOAXCC1,1.12,3.17
1297,537916,1173265,2015,2015-06-28T11:14:59.580Z,45.9448,-129.9698,0.89,0.0,OOAXEC2,0.57,0.84
1298,537917,1173265,2015,2015-06-28T11:14:59.580Z,45.9448,-129.9698,0.89,0.0,OOAXAS1,0.63,1.45
1299,537918,1173265,2015,2015-06-28T11:14:59.580Z,45.9448,-129.9698,0.89,0.0,OOAXEC1,0.39,0.81
1300,537919,1173266,2015,2015-06-28T16:26:12.600Z,45.9592,-129.9957,0.73,0.0,OOAXCC1,0.41,0.93
1301,537920,1173266,2015,2015-06-28T16:26:12.600Z,45.9592,-129.9957,0.73,0.0,OOAXEC1,0.57,1.1
1302,537921,1173267,2015,2015-06-28T16:43:31.920Z,45.98,-129.993,2.56,0.0,OOAXEC3,1.27,2.24
1303,537922,1173267,2015,2015-06-28T16:43:31.920Z,45.98,-129.993,2.56,0.0,OOAXEC2,1.23,2.11
1304,537923,1173267,2015,2015-06-28T16:43:31.920Z,45.98,-129.993,2.56,0.0,OOAXCC1,0.85,1.79
1305,537924,1173267,2015,2015-06-28T16:43:31.920Z,45.98,-129.993,2.56,0.0,OOAXEC1,0.95,1.84
1306,537925,1173268,2015,2015-06-28T17:24:46.750Z,45.9422,-129.9823,0.93,0.0,OOAXEC3,0.46,0.78
1307,537926,1173268,2015,2015-06-28T17:24:46.750Z,45.9422,-129.9823,0.93,0.0,OOAXEC2,0.3,0.76
1308,537927,1173268,2015,2015-06-28T17:24:46.750Z,45.9422,-129.9823,0.93,0.0,OOAXAS1,0.52,1.1
1309,537928,1173268,2015,2015-06-28T17:24:46.750Z,45.9422,-129.9823,0.93,0.0,OOAXEC1,0.36,0.83
1310,537929,1173269,2015,2015-06-28T17:25:13.640Z,45.9418,-129.9827,0.78,0.0,OOAXEC3,0.45,0.76
1311,537930,1173269,2015,2015-06-28T17:25:13.640Z,45.9418,-129.9827,0.78,0.0,OOAXAS1,0.53,1.08
1312,537931,1173269,2015,2015-06-28T17:25:13.640Z,45.9418,-129.9827,0.78,0.0,OOAXEC1,0.36,0.84
1313,537932,1173270,2015,2015-06-28T18:57:38.060Z,45.9655,-129.9993,0.56,0.0,OOAXEC3,1.12,1.81
1314,537933,1173270,2015,2015-06-28T18:57:38.060Z,45.9655,-129.9993,0.56,0.0,OOAXEC2,0.92,1.74
1315,537934,1173270,2015,2015-06-28T18:57:38.060Z,45.9655,-129.9993,0.56,0.0,OOAXEC1,0.58,1.45
1316,537935,1173271,2015,2015-06-28T19:47:10.580Z,45.9753,-129.9757,0.65,0.0,OOAXAS2,0.99,1.87
1317,537936,1173271,2015,2015-06-28T19:47:10.580Z,45.9753,-129.9757,0.65,0.0,OOAXEC3,1.25,1.92
1318,537937,1173271,2015,2015-06-28T19:47:10.580Z,45.9753,-129.9757,0.65,0.0,OOAXAS1,1.45,2.65
1319,537938,1173271,2015,2015-06-28T19:47:10.580Z,45.9753,-129.9757,0.65,0.0,OOAXCC1,0.8,1.57
1320,537939,1173271,2015,2015-06-28T19:47:10.580Z,45.9753,-129.9757,0.65,0.0,OOAXEC1,0.61,1.5
1321,537940,1173272,2015,2015-06-28T22:19:12.620Z,45.9812,-129.9768,1.44,0.0,OOAXEC3,1.15,2.21
1322,537941,1173272,2015,2015-06-28T22:19:12.620Z,45.9812,-129.9768,1.44,0.0,OOAXEC2,1.11,2.04
1323,537942,1173272,2015,2015-06-28T22:19:12.620Z,45.9812,-129.9768,1.44,0.0,OOAXCC1,1.0,1.8
1324,537943,1173272,2015,2015-06-28T22:19:12.620Z,45.9812,-129.9768,1.44,0.0,OOAXEC1,0.9,1.79
1325,537944,1173273,2015,2015-06-29T00:16:27.690Z,45.973,-129.9947,1.03,0.0,OOAXAS2,0.93,1.86
1326,537945,1173273,2015,2015-06-29T00:16:27.690Z,45.973,-129.9947,1.03,0.0,OOAXEC3,1.3,1.85
1327,537946,1173273,2015,2015-06-29T00:16:27.690Z,45.973,-129.9947,1.03,0.0,OOAXEC2,0.8,1.71
1328,537947,1173273,2015,2015-06-29T00:16:27.690Z,45.973,-129.9947,1.03,0.0,OOAXAS1,1.29,2.49
1329,537948,1173273,2015,2015-06-29T00:16:27.690Z,45.973,-129.9947,1.03,0.0,OOAXCC1,0.47,1.39
1330,537949,1173273,2015,2015-06-29T00:16:27.690Z,45.973,-129.9947,1.03,0.0,OOAXEC1,0.58,1.45
1331,537950,1173274,2015,2015-06-29T00:55:57.870Z,45.9657,-129.9948,0.96,0.0,OOAXAS2,0.88,1.71
1332,537951,1173274,2015,2015-06-29T00:55:57.870Z,45.9657,-129.9948,0.96,0.0,OOAXEC3,0.91,1.7
1333,537952,1173274,2015,2015-06-29T00:55:57.870Z,45.9657,-129.9948,0.96,0.0,OOAXEC2,1.03,1.54
1334,537953,1173274,2015,2015-06-29T00:55:57.870Z,45.9657,-129.9948,0.96,0.0,OOAXAS1,1.14,2.43
1335,537954,1173274,2015,2015-06-29T00:55:57.870Z,45.9657,-129.9948,0.96,0.0,OOAXCC1,0.44,1.28
1336,537955,1173274,2015,2015-06-29T00:55:57.870Z,45.9657,-129.9948,0.96,0.0,OOAXEC1,0.51,1.29
1337,537956,1173275,2015,2015-06-29T01:07:11.620Z,45.9662,-129.9925,2.89,0.0,OOAXEC3,1.01,1.85
1338,537957,1173275,2015,2015-06-29T01:07:11.620Z,45.9662,-129.9925,2.89,0.0,OOAXCC1,0.71,1.48
1339,537958,1173275,2015,2015-06-29T01:07:11.620Z,45.9662,-129.9925,2.89,0.0,OOAXEC1,0.81,1.5
1340,537959,1173276,2015,2015-06-29T01:16:04.370Z,45.9478,-129.9878,1.44,0.0,OOAXAS2,0.82,1.26
1341,537960,1173276,2015,2015-06-29T01:16:04.370Z,45.9478,-129.9878,1.44,0.0,OOAXEC3,0.55,1.06
1342,537961,1173276,2015,2015-06-29T01:16:04.370Z,45.9478,-129.9878,1.44,0.0,OOAXEC2,0.55,1.05
1343,537962,1173276,2015,2015-06-29T01:16:04.370Z,45.9478,-129.9878,1.44,0.0,OOAXAS1,0.69,1.31
1344,537963,1173276,2015,2015-06-29T01:16:04.370Z,45.9478,-129.9878,1.44,0.0,OOAXCC1,0.57,1.2
1345,537964,1173276,2015,2015-06-29T01:16:04.370Z,45.9478,-129.9878,1.44,0.0,OOAXEC1,0.4,0.91
1346,537965,1173277,2015,2015-06-29T01:56:44.540Z,45.9427,-129.9815,0.81,0.0,OOAXEC3,0.37,0.82
1347,537966,1173277,2015,2015-06-29T01:56:44.540Z,45.9427,-129.9815,0.81,0.0,OOAXEC2,0.34,0.78
1348,537967,1173277,2015,2015-06-29T01:56:44.540Z,45.9427,-129.9815,0.81,0.0,OOAXAS1,0.53,1.13
1349,537968,1173277,2015,2015-06-29T01:56:44.540Z,45.9427,-129.9815,0.81,0.0,OOAXEC1,0.35,0.8
1350,537969,1173278,2015,2015-06-29T03:16:21.500Z,45.9402,-129.9778,1.17,0.0,OOAXEC3,0.35,0.8
1351,537970,1173278,2015,2015-06-29T03:16:21.500Z,45.9402,-129.9778,1.17,0.0,OOAXEC2,0.35,0.76
1352,537971,1173278,2015,2015-06-29T03:16:21.500Z,45.9402,-129.9778,1.17,0.0,OOAXAS1,0.57,1.18
1353,537972,1173278,2015,2015-06-29T03:16:21.500Z,45.9402,-129.9778,1.17,0.0,OOAXEC1,0.51,0.93
1354,537973,1173279,2015,2015-06-29T11:54:18.890Z,45.9635,-129.999,0.32,0.0,OOAXEC3,0.96,1.97
1355,537974,1173279,2015,2015-06-29T11:54:18.890Z,45.9635,-129.999,0.32,0.0,OOAXCC1,0.57,1.09
1356,537975,1173279,2015,2015-06-29T11:54:18.890Z,45.9635,-129.999,0.32,0.0,OOAXEC1,0.71,1.54
1357,537976,1173280,2015,2015-06-29T13:10:20.390Z,45.9432,-129.983,0.76,0.0,OOAXEC3,0.36,0.85
1358,537977,1173280,2015,2015-06-29T13:10:20.390Z,45.9432,-129.983,0.76,0.0,OOAXEC2,0.36,0.82
1359,537978,1173280,2015,2015-06-29T13:10:20.390Z,45.9432,-129.983,0.76,0.0,OOAXAS1,0.54,1.11
1360,537979,1173280,2015,2015-06-29T13:10:20.390Z,45.9432,-129.983,0.76,0.0,OOAXEC1,0.36,0.79
1361,537980,1173281,2015,2015-06-29T13:42:35.570Z,45.9587,-129.9855,1.49,0.0,OOAXEC3,0.72,1.34
1362,537981,1173281,2015,2015-06-29T13:42:35.570Z,45.9587,-129.9855,1.49,0.0,OOAXEC2,0.72,1.3
1363,537982,1173281,2015,2015-06-29T13:42:35.570Z,45.9587,-129.9855,1.49,0.0,OOAXAS1,0.68,1.68
1364,537983,1173281,2015,2015-06-29T13:42:35.570Z,45.9587,-129.9855,1.49,0.0,OOAXCC1,0.58,1.17
1365,537984,1173281,2015,2015-06-29T13:42:35.570Z,45.9587,-129.9855,1.49,0.0,OOAXEC1,0.55,1.01
1366,537985,1173282,2015,2015-06-29T14:22:14.070Z,45.9267,-129.992,0.01,0.0,OOAXEC2,1.4,1.45
1367,537986,1173283,2015,2015-06-29T14:33:35.420Z,45.9647,-129.9937,2.58,0.0,OOAXEC3,0.93,1.86
1368,537987,1173283,2015,2015-06-29T14:33:35.420Z,45.9647,-129.9937,2.58,0.0,OOAXEC2,0.95,1.54
1369,537988,1173283,2015,2015-06-29T14:33:35.420Z,45.9647,-129.9937,2.58,0.0,OOAXCC1,0.65,1.37
1370,537989,1173283,2015,2015-06-29T14:33:35.420Z,45.9647,-129.9937,2.58,0.0,OOAXEC1,0.74,1.47
1371,537990,1173284,2015,2015-06-29T15:30:09.950Z,45.958,-129.9893,1.55,0.0,OOAXEC3,0.72,1.39
1372,537991,1173284,2015,2015-06-29T15:30:09.950Z,45.958,-129.9893,1.55,0.0,OOAXEC2,0.72,1.35
1373,537992,1173284,2015,2015-06-29T15:30:09.950Z,45.958,-129.9893,1.55,0.0,OOAXCC1,0.53,1.12
1374,537993,1173284,2015,2015-06-29T15:30:09.950Z,45.958,-129.9893,1.55,0.0,OOAXEC1,0.54,1.04
1375,537994,1173285,2015,2015-06-29T18:57:41.860Z,45.9508,-129.9827,1.81,0.0,OOAXEC3,0.67,1.15
1376,537995,1173285,2015,2015-06-29T18:57:41.860Z,45.9508,-129.9827,1.81,0.0,OOAXAS1,0.72,1.42
1377,537996,1173285,2015,2015-06-29T18:57:41.860Z,45.9508,-129.9827,1.81,0.0,OOAXCC1,0.65,1.3
1378,537997,1173285,2015,2015-06-29T18:57:41.860Z,45.9508,-129.9827,1.81,0.0,OOAXEC1,0.47,0.97
1379,537998,1173286,2015,2015-06-29T21:52:13.400Z,45.9562,-129.9922,2.11,0.0,OOAXEC3,0.73,1.49
1380,537999,1173286,2015,2015-06-29T21:52:13.400Z,45.9562,-129.9922,2.11,0.0,OOAXCC1,0.62,1.17
1381,538000,1173287,2015,2015-06-29T22:02:57.670Z,45.946,-129.9843,1.68,0.0,OOAXEC3,0.55,1.05
1382,538001,1173287,2015,2015-06-29T22:02:57.670Z,45.946,-129.9843,1.68,0.0,OOAXAS1,0.35,1.26
1383,538002,1173287,2015,2015-06-29T22:02:57.670Z,45.946,-129.9843,1.68,0.0,OOAXEC1,0.48,0.92
1384,538003,1173288,2015,2015-06-29T22:12:54.710Z,45.9548,-129.9927,1.0,0.0,OOAXAS2,0.72,1.37
1385,538004,1173288,2015,2015-06-29T22:12:54.710Z,45.9548,-129.9927,1.0,0.0,OOAXEC3,0.65,1.35
1386,538005,1173288,2015,2015-06-29T22:12:54.710Z,45.9548,-129.9927,1.0,0.0,OOAXEC2,0.63,1.24
1387,538006,1173288,2015,2015-06-29T22:12:54.710Z,45.9548,-129.9927,1.0,0.0,OOAXAS1,0.73,1.55
1388,538007,1173288,2015,2015-06-29T22:12:54.710Z,45.9548,-129.9927,1.0,0.0,OOAXCC1,0.46,1.03
1389,538008,1173288,2015,2015-06-29T22:12:54.710Z,45.9548,-129.9927,1.0,0.0,OOAXEC1,0.44,1.01
1390,538009,1173289,2015,2015-06-29T22:56:40.150Z,45.9595,-129.99,1.39,0.0,OOAXEC3,0.77,1.41
1391,538010,1173289,2015,2015-06-29T22:56:40.150Z,45.9595,-129.99,1.39,0.0,OOAXEC2,0.72,1.37
1392,538011,1173289,2015,2015-06-29T22:56:40.150Z,45.9595,-129.99,1.39,0.0,OOAXAS1,0.84,1.65
1393,538012,1173289,2015,2015-06-29T22:56:40.150Z,45.9595,-129.99,1.39,0.0,OOAXCC1,0.5,1.09
1394,538013,1173289,2015,2015-06-29T22:56:40.150Z,45.9595,-129.99,1.39,0.0,OOAXEC1,0.61,1.06
1395,538014,1173290,2015,2015-06-29T23:47:41.330Z,45.9433,-129.9827,0.92,0.0,OOAXEC3,0.43,0.85
1396,538015,1173290,2015,2015-06-29T23:47:41.330Z,45.9433,-129.9827,0.92,0.0,OOAXAS1,0.54,1.14
1397,538016,1173290,2015,2015-06-29T23:47:41.330Z,45.9433,-129.9827,0.92,0.0,OOAXEC1,0.38,0.79
1398,538017,1173291,2015,2015-06-30T02:02:49.590Z,45.952,-129.9948,1.0,0.0,OOAXAS2,0.74,1.27
1399,538018,1173291,2015,2015-06-30T02:02:49.590Z,45.952,-129.9948,1.0,0.0,OOAXEC3,0.63,1.33
1400,538019,1173291,2015,2015-06-30T02:02:49.590Z,45.952,-129.9948,1.0,0.0,OOAXEC2,0.61,1.22
1401,538020,1173291,2015,2015-06-30T02:02:49.590Z,45.952,-129.9948,1.0,0.0,OOAXAS1,0.72,1.32
1402,538021,1173291,2015,2015-06-30T02:02:49.590Z,45.952,-129.9948,1.0,0.0,OOAXCC1,0.42,0.95
1403,538022,1173291,2015,2015-06-30T02:02:49.590Z,45.952,-129.9948,1.0,0.0,OOAXEC1,0.42,0.97
1404,538023,1173292,2015,2015-06-30T02:09:29.050Z,45.955,-129.9923,1.0,0.0,OOAXAS2,0.82,1.43
1405,538024,1173292,2015,2015-06-30T02:09:29.050Z,45.955,-129.9923,1.0,0.0,OOAXEC3,0.68,1.31
1406,538025,1173292,2015,2015-06-30T02:09:29.050Z,45.955,-129.9923,1.0,0.0,OOAXEC2,0.64,1.26
1407,538026,1173292,2015,2015-06-30T02:09:29.050Z,45.955,-129.9923,1.0,0.0,OOAXCC1,0.45,1.01
1408,538027,1173292,2015,2015-06-30T02:09:29.050Z,45.955,-129.9923,1.0,0.0,OOAXEC1,0.44,1.01
1409,538028,1173293,2015,2015-06-30T04:33:10.700Z,45.969,-129.9913,1.06,0.0,OOAXEC3,0.93,1.72
1410,538029,1173293,2015,2015-06-30T04:33:10.700Z,45.969,-129.9913,1.06,0.0,OOAXEC2,0.91,1.67
1411,538030,1173293,2015,2015-06-30T04:33:10.700Z,45.969,-129.9913,1.06,0.0,OOAXCC1,0.56,1.24
1412,538031,1173293,2015,2015-06-30T04:33:10.700Z,45.969,-129.9913,1.06,0.0,OOAXEC1,0.68,1.35
1413,538032,1173294,2015,2015-06-30T07:03:14.500Z,45.9633,-129.9912,1.0,0.0,OOAXEC3,0.85,1.59
1414,538033,1173294,2015,2015-06-30T07:03:14.500Z,45.9633,-129.9912,1.0,0.0,OOAXEC1,0.55,1.19
1415,538034,1173295,2015,2015-06-30T08:31:53.620Z,46.0207,-130.0125,2.1,0.0,OOAXAS2,2.29,3.39
1416,538035,1173295,2015,2015-06-30T08:31:53.620Z,46.0207,-130.0125,2.1,0.0,OOAXAS1,1.53,2.39
1417,538036,1173295,2015,2015-06-30T08:31:53.620Z,46.0207,-130.0125,2.1,0.0,OOAXCC1,-0.05,0.91
1418,538037,1173296,2015,2015-06-30T10:24:48.560Z,45.964,-129.989,1.0,0.0,OOAXEC3,1.05,1.61
1419,538038,1173296,2015,2015-06-30T10:24:48.560Z,45.964,-129.989,1.0,0.0,OOAXCC1,0.74,1.13
1420,538039,1173296,2015,2015-06-30T10:24:48.560Z,45.964,-129.989,1.0,0.0,OOAXEC1,0.41,1.2
1421,538040,1173297,2015,2015-06-30T10:40:16.040Z,45.9398,-129.9783,1.15,0.0,OOAXEC3,0.35,0.78
1422,538041,1173297,2015,2015-06-30T10:40:16.040Z,45.9398,-129.9783,1.15,0.0,OOAXAS1,0.57,1.16
1423,538042,1173297,2015,2015-06-30T10:40:16.040Z,45.9398,-129.9783,1.15,0.0,OOAXEC1,0.45,0.95
1424,538043,1173298,2015,2015-06-30T11:32:17.660Z,45.9783,-129.988,1.24,0.0,OOAXCC1,0.77,1.69
1425,538044,1173298,2015,2015-06-30T11:32:17.660Z,45.9783,-129.988,1.24,0.0,OOAXEC1,0.89,1.64
1426,538045,1173299,2015,2015-06-30T12:46:38.790Z,45.9645,-129.9943,2.19,0.0,OOAXCC1,0.62,1.26
1427,538046,1173299,2015,2015-06-30T12:46:38.790Z,45.9645,-129.9943,2.19,0.0,OOAXEC1,0.7,1.36
1428,538047,1173300,2015,2015-06-30T13:06:36.040Z,45.9483,-129.9872,1.42,0.0,OOAXAS2,0.77,1.33
1429,538048,1173300,2015,2015-06-30T13:06:36.040Z,45.9483,-129.9872,1.42,0.0,OOAXEC3,0.54,1.06
1430,538049,1173300,2015,2015-06-30T13:06:36.040Z,45.9483,-129.9872,1.42,0.0,OOAXEC2,0.54,1.06
1431,538050,1173300,2015,2015-06-30T13:06:36.040Z,45.9483,-129.9872,1.42,0.0,OOAXAS1,0.66,1.31
1432,538051,1173300,2015,2015-06-30T13:06:36.040Z,45.9483,-129.9872,1.42,0.0,OOAXCC1,0.57,1.21
1433,538052,1173300,2015,2015-06-30T13:06:36.040Z,45.9483,-129.9872,1.42,0.0,OOAXEC1,0.39,0.88
1434,538053,1173301,2015,2015-06-30T13:10:24.860Z,45.9483,-129.9872,1.57,0.0,OOAXAS2,0.79,1.34
1435,538054,1173301,2015,2015-06-30T13:10:24.860Z,45.9483,-129.9872,1.57,0.0,OOAXEC3,0.55,1.07
1436,538055,1173301,2015,2015-06-30T13:10:24.860Z,45.9483,-129.9872,1.57,0.0,OOAXEC2,0.55,1.06
1437,538056,1173301,2015,2015-06-30T13:10:24.860Z,45.9483,-129.9872,1.57,0.0,OOAXAS1,0.69,1.32
1438,538057,1173301,2015,2015-06-30T13:10:24.860Z,45.9483,-129.9872,1.57,0.0,OOAXCC1,0.57,1.21
1439,538058,1173301,2015,2015-06-30T13:10:24.860Z,45.9483,-129.9872,1.57,0.0,OOAXEC1,0.4,0.94
1440,538059,1173302,2015,2015-06-30T17:27:18.950Z,45.971,-130.0048,3.53,0.0,OOAXEC3,1.08,2.19
1441,538060,1173302,2015,2015-06-30T17:27:18.950Z,45.971,-130.0048,3.53,0.0,OOAXCC1,0.68,1.67
1442,538061,1173302,2015,2015-06-30T17:27:18.950Z,45.971,-130.0048,3.53,0.0,OOAXEC1,1.09,1.8
1443,538062,1173303,2015,2015-06-30T20:30:03.330Z,45.9515,-129.9938,1.0,0.0,OOAXEC3,0.65,1.27
1444,538063,1173303,2015,2015-06-30T20:30:03.330Z,45.9515,-129.9938,1.0,0.0,OOAXEC2,0.6,1.23
1445,538064,1173303,2015,2015-06-30T20:30:03.330Z,45.9515,-129.9938,1.0,0.0,OOAXCC1,0.42,1.01
1446,538065,1173303,2015,2015-06-30T20:30:03.330Z,45.9515,-129.9938,1.0,0.0,OOAXEC1,0.42,0.97
1447,538066,1173304,2015,2015-06-30T21:42:39.240Z,45.9302,-129.98,0.16,0.0,OOAXEC3,-0.94,-0.13
1448,538067,1173304,2015,2015-06-30T21:42:39.240Z,45.9302,-129.98,0.16,0.0,OOAXEC2,-0.09,1.25
1449,538068,1173305,2015,2015-06-30T21:42:49.170Z,45.9203,-130.0085,0.32,0.0,OOAXEC3,0.07,1.98
1450,538069,1173305,2015,2015-06-30T21:42:49.170Z,45.9203,-130.0085,0.32,0.0,OOAXAS1,-0.14,0.5
1451,538070,1173305,2015,2015-06-30T21:42:49.170Z,45.9203,-130.0085,0.32,0.0,OOAXCC1,1.89,1.91
1452,538071,1173306,2015,2015-06-30T21:42:59.760Z,45.9243,-130.004,0.01,0.0,OOAXEC3,0.19,2.07
1453,538072,1173306,2015,2015-06-30T21:42:59.760Z,45.9243,-130.004,0.01,0.0,OOAXAS1,-0.01,0.64
1454,538073,1173306,2015,2015-06-30T21:42:59.760Z,45.9243,-130.004,0.01,0.0,OOAXCC1,2.01,2.03
1455,538074,1173307,2015,2015-06-30T23:26:26.170Z,45.9062,-129.9792,0.73,0.0,OOAXAS2,0.9,1.89
1456,538075,1173307,2015,2015-06-30T23:26:26.170Z,45.9062,-129.9792,0.73,0.0,OOAXEC2,0.72,1.74
1457,538076,1173307,2015,2015-06-30T23:26:26.170Z,45.9062,-129.9792,0.73,0.0,OOAXAS1,0.52,1.6
1458,538077,1173307,2015,2015-06-30T23:26:26.170Z,45.9062,-129.9792,0.73,0.0,OOAXCC1,2.14,2.9
1459,538078,1173307,2015,2015-06-30T23:26:26.170Z,45.9062,-129.9792,0.73,0.0,OOAXEC1,1.44,2.32
1460,538079,1173308,2015,2015-07-01T02:20:25.780Z,45.9203,-129.9812,0.01,0.0,OOAXEC3,-0.59,0.4
1461,538080,1173308,2015,2015-07-01T02:20:25.780Z,45.9203,-129.9812,0.01,0.0,OOAXEC2,-0.39,0.58
1462,538081,1173308,2015,2015-07-01T02:20:25.780Z,45.9203,-129.9812,0.01,0.0,OOAXAS1,-0.41,0.52
1463,538082,1173308,2015,2015-07-01T02:20:25.780Z,45.9203,-129.9812,0.01,0.0,OOAXCC1,1.91,3.13
1464,538083,1173308,2015,2015-07-01T02:20:25.780Z,45.9203,-129.9812,0.01,0.0,OOAXEC1,1.19,2.59
1465,538084,1173309,2015,2015-07-01T02:24:43.870Z,45.9117,-129.9815,0.12,0.0,OOAXEC3,0.84,1.86
1466,538085,1173309,2015,2015-07-01T02:24:43.870Z,45.9117,-129.9815,0.12,0.0,OOAXEC2,1.06,2.05
1467,538086,1173309,2015,2015-07-01T02:24:43.870Z,45.9117,-129.9815,0.12,0.0,OOAXAS1,0.93,1.93
1468,538087,1173309,2015,2015-07-01T02:24:43.870Z,45.9117,-129.9815,0.12,0.0,OOAXEC1,1.82,2.64
1469,538088,1173309,2015,2015-07-01T02:24:43.870Z,45.9117,-129.9815,0.12,0.0,OOAXID1,0.09,1.51
1470,538089,1173310,2015,2015-07-01T02:48:08.080Z,45.9347,-130.0003,0.6,0.0,OOAXEC3,0.88,0.9
1471,538090,1173310,2015,2015-07-01T02:48:08.080Z,45.9347,-130.0003,0.6,0.0,OOAXEC2,1.13,1.15
1472,538091,1173310,2015,2015-07-01T02:48:08.080Z,45.9347,-130.0003,0.6,0.0,OOAXAS1,-0.83,0.01
1473,538092,1173310,2015,2015-07-01T02:48:08.080Z,45.9347,-130.0003,0.6,0.0,OOAXCC1,0.55,1.49
1474,538093,1173311,2015,2015-07-01T02:52:02.130Z,45.9215,-130.011,0.01,0.0,OOAXAS2,0.01,1.44
1475,538094,1173311,2015,2015-07-01T02:52:02.130Z,45.9215,-130.011,0.01,0.0,OOAXEC3,0.9,2.03
1476,538095,1173311,2015,2015-07-01T02:52:02.130Z,45.9215,-130.011,0.01,0.0,OOAXEC2,1.25,2.28
1477,538096,1173311,2015,2015-07-01T02:52:02.130Z,45.9215,-130.011,0.01,0.0,OOAXAS1,0.18,1.52
1478,538097,1173311,2015,2015-07-01T02:52:02.130Z,45.9215,-130.011,0.01,0.0,OOAXCC1,1.5,2.44
1479,538098,1173311,2015,2015-07-01T02:52:02.130Z,45.9215,-130.011,0.01,0.0,OOAXEC1,1.66,2.59
1480,538099,1173311,2015,2015-07-01T02:52:02.130Z,45.9215,-130.011,0.01,0.0,OOAXID1,0.44,1.7
1481,538100,1173312,2015,2015-07-01T04:05:13.700Z,46.0665,-129.9892,0.93,0.0,OOAXAS1,3.69,5.73
1482,538101,1173312,2015,2015-07-01T04:05:13.700Z,46.0665,-129.9892,0.93,0.0,OOAXCC1,2.09,4.55
1483,538102,1173313,2015,2015-07-01T04:05:27.530Z,46.0317,-130.0147,0.75,0.0,OOAXEC2,2.46,3.36
1484,538103,1173313,2015,2015-07-01T04:05:27.530Z,46.0317,-130.0147,0.75,0.0,OOAXCC1,0.7,3.13
1485,538104,1173314,2015,2015-07-01T05:39:38.410Z,45.9248,-129.9698,0.02,0.0,OOAXAS2,1.14,2.56
