,Unnamed: 0,id,year,datetime,lat,lon,dep,mag,station,p_arrival_time,s_arrival_time
1486,538105,1173314,2015,2015-07-01T05:39:38.410Z,45.9248,-129.9698,0.02,0.0,OOAXEC3,-0.58,0.4
1487,538106,1173314,2015,2015-07-01T05:39:38.410Z,45.9248,-129.9698,0.02,0.0,OOAXEC2,-0.44,0.54
1488,538107,1173314,2015,2015-07-01T05:39:38.410Z,45.9248,-129.9698,0.02,0.0,OOAXCC1,1.37,3.25
1489,538108,1173315,2015,2015-07-01T05:39:48.490Z,45.9372,-129.981,0.0,0.0,OOAXAS2,1.14,2.57
1490,538109,1173315,2015,2015-07-01T05:39:48.490Z,45.9372,-129.981,0.0,0.0,OOAXEC3,-1.66,0.41
1491,538110,1173315,2015,2015-07-01T05:39:48.490Z,45.9372,-129.981,0.0,0.0,OOAXAS1,-0.92,0.7
1492,538111,1173315,2015,2015-07-01T05:39:48.490Z,45.9372,-129.981,0.0,0.0,OOAXCC1,1.38,2.04
1493,538112,1173315,2015,2015-07-01T05:39:48.490Z,45.9372,-129.981,0.0,0.0,OOAXEC1,0.4,1.2
1494,538113,1173316,2015,2015-07-01T05:39:58.890Z,45.9393,-129.9737,0.01,0.0,OOAXAS2,1.2,2.66
1495,538114,1173316,2015,2015-07-01T05:39:58.890Z,45.9393,-129.9737,0.01,0.0,OOAXCC1,1.43,2.13
1496,538115,1173316,2015,2015-07-01T05:39:58.890Z,45.9393,-129.9737,0.01,0.0,OOAXEC1,0.46,1.3
1497,538116,1173317,2015,2015-07-01T05:40:08.890Z,45.9253,-129.9598,0.32,0.0,OOAXAS1,-0.44,0.22
1498,538117,1173317,2015,2015-07-01T05:40:08.890Z,45.9253,-129.9598,0.32,0.0,OOAXEC1,-0.12,0.73
1499,538118,1173318,2015,2015-07-01T05:40:17.780Z,45.9108,-129.9468,0.13,0.0,OOAXAS2,1.85,3.29
1500,538119,1173318,2015,2015-07-01T05:40:17.780Z,45.9108,-129.9468,0.13,0.0,OOAXEC2,0.35,2.86
1501,538120,1173318,2015,2015-07-01T05:40:17.780Z,45.9108,-129.9468,0.13,0.0,OOAXAS1,0.49,3.01
1502,538121,1173318,2015,2015-07-01T05:40:17.780Z,45.9108,-129.9468,0.13,0.0,OOAXEC1,1.12,1.95
1503,538122,1173318,2015,2015-07-01T05:40:17.780Z,45.9108,-129.9468,0.13,0.0,OOAXID1,-0.51,0.7
1504,538123,1173319,2015,2015-07-01T06:37:37.630Z,45.9482,-130.0197,0.01,0.0,OOAXAS2,0.65,1.8
1505,538124,1173319,2015,2015-07-01T06:37:37.630Z,45.9482,-130.0197,0.01,0.0,OOAXCC1,-0.24,0.83
1506,538125,1173320,2015,2015-07-01T06:45:13.700Z,45.9658,-129.9913,2.14,0.0,OOAXCC1,0.57,1.32
1507,538126,1173320,2015,2015-07-01T06:45:13.700Z,45.9658,-129.9913,2.14,0.0,OOAXEC1,0.72,1.34
1508,538127,1173321,2015,2015-07-01T08:10:00.930Z,46.0095,-130.0347,1.63,0.0,OOAXAS1,2.44,3.42
1509,538128,1173321,2015,2015-07-01T08:10:00.930Z,46.0095,-130.0347,1.63,0.0,OOAXCC1,0.56,1.16
1510,538129,1173322,2015,2015-07-01T10:31:30.220Z,45.9548,-130.0812,0.81,0.0,OOAXEC3,1.33,2.37
1511,538130,1173322,2015,2015-07-01T10:31:30.220Z,45.9548,-130.0812,0.81,0.0,OOAXEC2,0.29,4.01
1512,538131,1173322,2015,2015-07-01T10:31:30.220Z,45.9548,-130.0812,0.81,0.0,OOAXCC1,0.62,1.26
1513,538132,1173322,2015,2015-07-01T10:31:30.220Z,45.9548,-130.0812,0.81,0.0,OOAXEC1,3.51,3.52
1514,538133,1173323,2015,2015-07-01T11:57:01.110Z,45.9998,-130.0657,1.75,0.0,OOAXAS2,1.92,2.87
1515,538134,1173323,2015,2015-07-01T11:57:01.110Z,45.9998,-130.0657,1.75,0.0,OOAXEC2,1.78,3.88
1516,538135,1173323,2015,2015-07-01T11:57:01.110Z,45.9998,-130.0657,1.75,0.0,OOAXAS1,2.22,3.51
1517,538136,1173323,2015,2015-07-01T11:57:01.110Z,45.9998,-130.0657,1.75,0.0,OOAXCC1,1.48,2.68
1518,538137,1173323,2015,2015-07-01T11:57:01.110Z,45.9998,-130.0657,1.75,0.0,OOAXEC1,1.56,2.54
1519,538138,1173324,2015,2015-07-01T12:25:19.250Z,45.9945,-129.9767,1.16,0.0,OOAXEC2,1.32,2.48
1520,538139,1173324,2015,2015-07-01T12:25:19.250Z,45.9945,-129.9767,1.16,0.0,OOAXCC1,0.85,3.57
1521,538140,1173324,2015,2015-07-01T12:25:19.250Z,45.9945,-129.9767,1.16,0.0,OOAXEC1,0.78,1.89
1522,538141,1173325,2015,2015-07-01T12:41:59.040Z,45.9433,-129.9822,1.1,0.0,OOAXAS2,0.74,1.21
1523,538142,1173325,2015,2015-07-01T12:41:59.040Z,45.9433,-129.9822,1.1,0.0,OOAXEC3,0.41,0.86
1524,538143,1173325,2015,2015-07-01T12:41:59.040Z,45.9433,-129.9822,1.1,0.0,OOAXEC2,0.39,0.84
1525,538144,1173325,2015,2015-07-01T12:41:59.040Z,45.9433,-129.9822,1.1,0.0,OOAXAS1,0.57,1.18
1526,538145,1173325,2015,2015-07-01T12:41:59.040Z,45.9433,-129.9822,1.1,0.0,OOAXCC1,0.67,1.42
1527,538146,1173325,2015,2015-07-01T12:41:59.040Z,45.9433,-129.9822,1.1,0.0,OOAXEC1,0.37,0.81
1528,538147,1173326,2015,2015-07-01T12:45:01.670Z,45.9438,-129.9805,1.19,0.0,OOAXAS2,0.75,2.76
1529,538148,1173326,2015,2015-07-01T12:45:01.670Z,45.9438,-129.9805,1.19,0.0,OOAXEC3,0.42,0.87
1530,538149,1173326,2015,2015-07-01T12:45:01.670Z,45.9438,-129.9805,1.19,0.0,OOAXEC2,0.41,0.85
1531,538150,1173326,2015,2015-07-01T12:45:01.670Z,45.9438,-129.9805,1.19,0.0,OOAXAS1,0.58,1.19
1532,538151,1173326,2015,2015-07-01T12:45:01.670Z,45.9438,-129.9805,1.19,0.0,OOAXCC1,0.68,1.43
1533,538152,1173326,2015,2015-07-01T12:45:01.670Z,45.9438,-129.9805,1.19,0.0,OOAXEC1,0.37,0.81
1534,538153,1173327,2015,2015-07-01T14:55:44.350Z,45.9425,-129.9827,0.78,0.0,OOAXEC3,-0.19,0.83
1535,538154,1173327,2015,2015-07-01T14:55:44.350Z,45.9425,-129.9827,0.78,0.0,OOAXEC2,0.34,0.8
1536,538155,1173327,2015,2015-07-01T14:55:44.350Z,45.9425,-129.9827,0.78,0.0,OOAXAS1,0.53,1.12
1537,538156,1173327,2015,2015-07-01T14:55:44.350Z,45.9425,-129.9827,0.78,0.0,OOAXEC1,0.37,0.82
1538,538157,1173328,2015,2015-07-01T15:05:30.290Z,45.9663,-129.9907,1.0,0.0,OOAXEC3,0.86,1.7
1539,538158,1173328,2015,2015-07-01T15:05:30.290Z,45.9663,-129.9907,1.0,0.0,OOAXEC2,0.83,1.61
1540,538159,1173328,2015,2015-07-01T15:05:30.290Z,45.9663,-129.9907,1.0,0.0,OOAXCC1,0.55,1.19
1541,538160,1173328,2015,2015-07-01T15:05:30.290Z,45.9663,-129.9907,1.0,0.0,OOAXEC1,0.64,1.33
1542,538161,1173329,2015,2015-07-01T16:11:47.610Z,45.9618,-129.9858,1.86,0.0,OOAXCC1,0.63,1.31
1543,538162,1173329,2015,2015-07-01T16:11:47.610Z,45.9618,-129.9858,1.86,0.0,OOAXEC1,0.66,1.16
1544,538163,1173330,2015,2015-07-01T16:48:02.680Z,45.9437,-129.9875,1.0,0.0,OOAXEC2,0.11,0.99
1545,538164,1173330,2015,2015-07-01T16:48:02.680Z,45.9437,-129.9875,1.0,0.0,OOAXAS1,0.99,0.99
1546,538165,1173330,2015,2015-07-01T16:48:02.680Z,45.9437,-129.9875,1.0,0.0,OOAXCC1,0.73,0.93
1547,538166,1173331,2015,2015-07-01T16:48:44.560Z,45.9455,-129.9877,0.83,0.0,OOAXEC2,0.59,0.84
1548,538167,1173331,2015,2015-07-01T16:48:44.560Z,45.9455,-129.9877,0.83,0.0,OOAXAS1,0.66,0.87
1549,538168,1173331,2015,2015-07-01T16:48:44.560Z,45.9455,-129.9877,0.83,0.0,OOAXCC1,0.55,0.72
1550,538169,1173332,2015,2015-07-01T16:52:23.740Z,45.9497,-129.988,0.83,0.0,OOAXCC1,0.53,0.72
1551,538170,1173332,2015,2015-07-01T16:52:23.740Z,45.9497,-129.988,0.83,0.0,OOAXID1,1.09,2.63
1552,538171,1173333,2015,2015-07-01T17:00:34.680Z,45.9605,-129.9845,0.0,0.0,OOAXAS2,2.73,4.1
1553,538172,1173333,2015,2015-07-01T17:00:34.680Z,45.9605,-129.9845,0.0,0.0,OOAXEC3,1.12,2.03
1554,538173,1173333,2015,2015-07-01T17:00:34.680Z,45.9605,-129.9845,0.0,0.0,OOAXEC2,0.82,1.81
1555,538174,1173333,2015,2015-07-01T17:00:34.680Z,45.9605,-129.9845,0.0,0.0,OOAXAS1,1.61,2.45
1556,538175,1173333,2015,2015-07-01T17:00:34.680Z,45.9605,-129.9845,0.0,0.0,OOAXCC1,0.57,1.59
1557,538176,1173333,2015,2015-07-01T17:00:34.680Z,45.9605,-129.9845,0.0,0.0,OOAXEC1,0.17,1.32
1558,538177,1173335,2015,2015-07-01T19:11:12.410Z,45.993,-130.0527,0.77,0.0,OOAXEC3,2.53,3.89
1559,538178,1173335,2015,2015-07-01T19:11:12.410Z,45.993,-130.0527,0.77,0.0,OOAXCC1,0.25,1.25
1560,538179,1173335,2015,2015-07-01T19:11:12.410Z,45.993,-130.0527,0.77,0.0,OOAXEC1,1.72,2.42
1561,538180,1173336,2015,2015-07-01T20:11:20.160Z,45.9625,-129.9947,1.0,0.0,OOAXCC1,0.49,1.05
1562,538181,1173336,2015,2015-07-01T20:11:20.160Z,45.9625,-129.9947,1.0,0.0,OOAXEC1,0.56,1.26
1563,538182,1173337,2015,2015-07-01T20:34:12.040Z,45.9285,-129.9832,1.37,0.0,OOAXEC3,0.47,0.93
1564,538183,1173337,2015,2015-07-01T20:34:12.040Z,45.9285,-129.9832,1.37,0.0,OOAXEC2,0.59,1.05
1565,538184,1173337,2015,2015-07-01T20:34:12.040Z,45.9285,-129.9832,1.37,0.0,OOAXAS1,0.49,1.06
1566,538185,1173337,2015,2015-07-01T20:34:12.040Z,45.9285,-129.9832,1.37,0.0,OOAXEC1,0.67,1.36
1567,538186,1173338,2015,2015-07-01T21:26:59.010Z,45.9288,-129.9892,0.19,0.0,OOAXCC1,1.56,1.57
1568,538187,1173340,2015,2015-07-01T22:30:00.750Z,45.9503,-129.9912,0.97,0.0,OOAXEC3,0.59,1.19
1569,538188,1173340,2015,2015-07-01T22:30:00.750Z,45.9503,-129.9912,0.97,0.0,OOAXEC2,0.57,1.2
1570,538189,1173340,2015,2015-07-01T22:30:00.750Z,45.9503,-129.9912,0.97,0.0,OOAXCC1,0.46,1.08
1571,538190,1173340,2015,2015-07-01T22:30:00.750Z,45.9503,-129.9912,0.97,0.0,OOAXEC1,0.4,0.85
1572,538191,1173341,2015,2015-07-01T22:31:38.810Z,45.9808,-129.982,1.22,0.0,OOAXCC1,0.93,1.7
1573,538192,1173341,2015,2015-07-01T22:31:38.810Z,45.9808,-129.982,1.22,0.0,OOAXEC1,0.74,1.75
1574,538193,1173343,2015,2015-07-02T03:06:02.790Z,45.9395,-129.9738,1.44,0.0,OOAXEC3,0.44,0.91
1575,538194,1173343,2015,2015-07-02T03:06:02.790Z,45.9395,-129.9738,1.44,0.0,OOAXEC2,0.43,0.86
1576,538195,1173343,2015,2015-07-02T03:06:02.790Z,45.9395,-129.9738,1.44,0.0,OOAXAS1,0.66,1.27
1577,538196,1173343,2015,2015-07-02T03:06:02.790Z,45.9395,-129.9738,1.44,0.0,OOAXCC1,0.85,1.66
1578,538197,1173343,2015,2015-07-02T03:06:02.790Z,45.9395,-129.9738,1.44,0.0,OOAXEC1,0.48,0.92
1579,538198,1173343,2015,2015-07-02T03:06:02.790Z,45.9395,-129.9738,1.44,0.0,OOAXID1,0.6,1.01
1580,538199,1173344,2015,2015-07-02T04:36:19.500Z,45.9182,-130.0303,0.79,0.0,OOAXEC3,1.23,2.27
1581,538200,1173344,2015,2015-07-02T04:36:19.500Z,45.9182,-130.0303,0.79,0.0,OOAXEC2,1.13,2.16
1582,538201,1173345,2015,2015-07-02T06:06:38.350Z,45.9488,-130.0253,0.58,0.0,OOAXAS2,0.2,1.36
1583,538202,1173345,2015,2015-07-02T06:06:38.350Z,45.9488,-130.0253,0.58,0.0,OOAXCC1,0.01,0.03
1584,538203,1173346,2015,2015-07-02T07:27:41.170Z,45.9727,-129.9925,2.9,0.0,OOAXEC3,1.24,2.06
1585,538204,1173346,2015,2015-07-02T07:27:41.170Z,45.9727,-129.9925,2.9,0.0,OOAXEC1,0.83,1.66
1586,538205,1173347,2015,2015-07-02T07:59:56.800Z,45.9547,-129.9942,1.0,0.0,OOAXAS2,0.82,1.36
1587,538206,1173347,2015,2015-07-02T07:59:56.800Z,45.9547,-129.9942,1.0,0.0,OOAXEC3,0.67,1.36
1588,538207,1173347,2015,2015-07-02T07:59:56.800Z,45.9547,-129.9942,1.0,0.0,OOAXEC2,0.65,1.3
1589,538208,1173347,2015,2015-07-02T07:59:56.800Z,45.9547,-129.9942,1.0,0.0,OOAXAS1,0.78,1.69
1590,538209,1173347,2015,2015-07-02T07:59:56.800Z,45.9547,-129.9942,1.0,0.0,OOAXCC1,0.39,0.97
1591,538210,1173347,2015,2015-07-02T07:59:56.800Z,45.9547,-129.9942,1.0,0.0,OOAXEC1,0.45,1.02
1592,538211,1173348,2015,2015-07-02T11:54:45.780Z,45.9438,-129.9815,1.16,0.0,OOAXEC3,0.42,0.89
1593,538212,1173348,2015,2015-07-02T11:54:45.780Z,45.9438,-129.9815,1.16,0.0,OOAXEC2,0.39,0.84
1594,538213,1173348,2015,2015-07-02T11:54:45.780Z,45.9438,-129.9815,1.16,0.0,OOAXAS1,0.56,1.16
1595,538214,1173348,2015,2015-07-02T11:54:45.780Z,45.9438,-129.9815,1.16,0.0,OOAXCC1,0.68,1.41
1596,538215,1173348,2015,2015-07-02T11:54:45.780Z,45.9438,-129.9815,1.16,0.0,OOAXEC1,0.37,0.81
1597,538216,1173349,2015,2015-07-02T13:15:03.240Z,45.9437,-129.9818,1.19,0.0,OOAXEC3,0.43,0.89
1598,538217,1173349,2015,2015-07-02T13:15:03.240Z,45.9437,-129.9818,1.19,0.0,OOAXAS1,0.58,1.16
1599,538218,1173349,2015,2015-07-02T13:15:03.240Z,45.9437,-129.9818,1.19,0.0,OOAXEC1,0.39,0.84
1600,538219,1173350,2015,2015-07-02T15:36:55.120Z,45.9783,-129.9878,2.38,0.0,OOAXEC3,1.18,2.14
1601,538220,1173350,2015,2015-07-02T15:36:55.120Z,45.9783,-129.9878,2.38,0.0,OOAXCC1,0.82,1.74
1602,538221,1173350,2015,2015-07-02T15:36:55.120Z,45.9783,-129.9878,2.38,0.0,OOAXEC1,0.92,1.72
1603,538222,1173351,2015,2015-07-02T18:46:17.750Z,45.9715,-129.9903,2.97,0.0,OOAXAS2,1.21,2.09
1604,538223,1173351,2015,2015-07-02T18:46:17.750Z,45.9715,-129.9903,2.97,0.0,OOAXAS1,1.25,2.82
1605,538224,1173351,2015,2015-07-02T18:46:17.750Z,45.9715,-129.9903,2.97,0.0,OOAXCC1,0.73,1.71
1606,538225,1173351,2015,2015-07-02T18:46:17.750Z,45.9715,-129.9903,2.97,0.0,OOAXEC1,0.82,1.65
1607,538226,1173352,2015,2015-07-02T19:54:08.890Z,45.9925,-129.9937,0.06,0.0,OOAXCC1,1.29,2.52
1608,538227,1173352,2015,2015-07-02T19:54:08.890Z,45.9925,-129.9937,0.06,0.0,OOAXEC1,1.28,2.71
1609,538228,1173353,2015,2015-07-03T03:18:57.430Z,45.91,-129.9805,5.51,0.0,OOAXEC3,0.86,2.19
1610,538229,1173353,2015,2015-07-03T03:18:57.430Z,45.91,-129.9805,5.51,0.0,OOAXAS1,1.07,2.29
1611,538230,1173354,2015,2015-07-03T03:47:50.760Z,45.9772,-129.9927,1.22,0.0,OOAXEC3,1.32,2.09
1612,538231,1173354,2015,2015-07-03T03:47:50.760Z,45.9772,-129.9927,1.22,0.0,OOAXEC2,1.12,1.96
1613,538232,1173354,2015,2015-07-03T03:47:50.760Z,45.9772,-129.9927,1.22,0.0,OOAXCC1,0.68,1.64
1614,538233,1173354,2015,2015-07-03T03:47:50.760Z,45.9772,-129.9927,1.22,0.0,OOAXEC1,0.8,1.67
1615,538234,1173356,2015,2015-07-03T09:13:35.940Z,45.9398,-129.9772,1.27,0.0,OOAXEC3,0.37,0.83
1616,538235,1173356,2015,2015-07-03T09:13:35.940Z,45.9398,-129.9772,1.27,0.0,OOAXEC2,0.34,0.78
1617,538236,1173356,2015,2015-07-03T09:13:35.940Z,45.9398,-129.9772,1.27,0.0,OOAXAS1,0.59,1.19
1618,538237,1173356,2015,2015-07-03T09:13:35.940Z,45.9398,-129.9772,1.27,0.0,OOAXEC1,0.53,0.96
1619,538238,1173357,2015,2015-07-03T09:25:09.660Z,45.9592,-129.9787,1.88,0.0,OOAXAS1,0.91,1.73
1620,538239,1173357,2015,2015-07-03T09:25:09.660Z,45.9592,-129.9787,1.88,0.0,OOAXCC1,0.74,1.37
1621,538240,1173357,2015,2015-07-03T09:25:09.660Z,45.9592,-129.9787,1.88,0.0,OOAXEC1,0.37,1.17
1622,538241,1173358,2015,2015-07-03T13:09:17.150Z,45.9453,-129.9832,1.17,0.0,OOAXEC3,0.49,0.94
1623,538242,1173358,2015,2015-07-03T13:09:17.150Z,45.9453,-129.9832,1.17,0.0,OOAXEC2,0.42,0.91
1624,538243,1173358,2015,2015-07-03T13:09:17.150Z,45.9453,-129.9832,1.17,0.0,OOAXAS1,0.59,1.18
1625,538244,1173358,2015,2015-07-03T13:09:17.150Z,45.9453,-129.9832,1.17,0.0,OOAXEC1,0.37,0.8
1626,538245,1173359,2015,2015-07-03T14:51:47.740Z,45.9418,-129.983,0.94,0.0,OOAXAS2,0.73,1.22
1627,538246,1173359,2015,2015-07-03T14:51:47.740Z,45.9418,-129.983,0.94,0.0,OOAXEC3,0.37,0.83
1628,538247,1173359,2015,2015-07-03T14:51:47.740Z,45.9418,-129.983,0.94,0.0,OOAXEC2,0.34,0.8
1629,538248,1173359,2015,2015-07-03T14:51:47.740Z,45.9418,-129.983,0.94,0.0,OOAXAS1,0.54,1.14
1630,538249,1173359,2015,2015-07-03T14:51:47.740Z,45.9418,-129.983,0.94,0.0,OOAXCC1,0.71,1.45
1631,538250,1173359,2015,2015-07-03T14:51:47.740Z,45.9418,-129.983,0.94,0.0,OOAXEC1,0.41,0.82
1632,538251,1173360,2015,2015-07-03T15:52:21.040Z,45.944,-129.9767,1.24,0.0,OOAXEC3,-0.02,0.95
1633,538252,1173360,2015,2015-07-03T15:52:21.040Z,45.944,-129.9767,1.24,0.0,OOAXAS1,0.62,1.24
1634,538253,1173360,2015,2015-07-03T15:52:21.040Z,45.944,-129.9767,1.24,0.0,OOAXEC1,0.41,0.83
1635,538254,1173361,2015,2015-07-03T17:35:03.770Z,45.9368,-129.9768,1.5,0.0,OOAXAS2,0.81,1.33
1636,538255,1173361,2015,2015-07-03T17:35:03.770Z,45.9368,-129.9768,1.5,0.0,OOAXEC3,0.43,0.9
1637,538256,1173361,2015,2015-07-03T17:35:03.770Z,45.9368,-129.9768,1.5,0.0,OOAXEC2,0.41,0.84
1638,538257,1173361,2015,2015-07-03T17:35:03.770Z,45.9368,-129.9768,1.5,0.0,OOAXAS1,0.66,1.27
1639,538258,1173361,2015,2015-07-03T17:35:03.770Z,45.9368,-129.9768,1.5,0.0,OOAXCC1,0.87,1.73
1640,538259,1173361,2015,2015-07-03T17:35:03.770Z,45.9368,-129.9768,1.5,0.0,OOAXEC1,0.52,0.98
1641,538260,1173361,2015,2015-07-03T17:35:03.770Z,45.9368,-129.9768,1.5,0.0,OOAXID1,0.56,0.97
1642,538261,1173362,2015,2015-07-03T21:32:54.540Z,45.9705,-129.9988,0.89,0.0,OOAXAS2,0.92,1.78
1643,538262,1173362,2015,2015-07-03T21:32:54.540Z,45.9705,-129.9988,0.89,0.0,OOAXEC3,1.1,1.74
1644,538263,1173362,2015,2015-07-03T21:32:54.540Z,45.9705,-129.9988,0.89,0.0,OOAXAS1,1.45,2.5
1645,538264,1173362,2015,2015-07-03T21:32:54.540Z,45.9705,-129.9988,0.89,0.0,OOAXCC1,0.44,1.18
1646,538265,1173362,2015,2015-07-03T21:32:54.540Z,45.9705,-129.9988,0.89,0.0,OOAXEC1,0.57,1.33
1647,538266,1173363,2015,2015-07-03T22:10:04.060Z,45.9722,-129.9928,1.14,0.0,OOAXAS1,1.38,2.67
1648,538267,1173363,2015,2015-07-03T22:10:04.060Z,45.9722,-129.9928,1.14,0.0,OOAXCC1,0.66,1.33
1649,538268,1173363,2015,2015-07-03T22:10:04.060Z,45.9722,-129.9928,1.14,0.0,OOAXEC1,0.71,1.5
1650,538269,1173364,2015,2015-07-04T06:05:37.360Z,45.9808,-129.983,2.94,0.0,OOAXEC3,1.22,2.28
1651,538270,1173364,2015,2015-07-04T06:05:37.360Z,45.9808,-129.983,2.94,0.0,OOAXEC1,0.99,1.87
1652,538271,1173365,2015,2015-07-04T06:47:30.980Z,45.9557,-129.9997,1.39,0.0,OOAXCC1,0.3,0.96
1653,538272,1173365,2015,2015-07-04T06:47:30.980Z,45.9557,-129.9997,1.39,0.0,OOAXEC1,0.79,1.09
1654,538273,1173366,2015,2015-07-04T09:01:01.580Z,45.9798,-129.9885,4.12,0.0,OOAXEC3,1.31,2.36
1655,538274,1173366,2015,2015-07-04T09:01:01.580Z,45.9798,-129.9885,4.12,0.0,OOAXEC2,1.32,2.34
1656,538275,1173366,2015,2015-07-04T09:01:01.580Z,45.9798,-129.9885,4.12,0.0,OOAXCC1,0.96,2.04
1657,538276,1173366,2015,2015-07-04T09:01:01.580Z,45.9798,-129.9885,4.12,0.0,OOAXEC1,1.13,2.02
1658,538277,1173367,2015,2015-07-04T09:08:11.290Z,45.9187,-129.9387,2.97,0.0,OOAXAS2,0.62,2.02
1659,538278,1173367,2015,2015-07-04T09:08:11.290Z,45.9187,-129.9387,2.97,0.0,OOAXEC1,1.17,2.48
1660,538279,1173368,2015,2015-07-04T12:03:43.690Z,45.9667,-129.987,1.0,0.0,OOAXEC3,0.69,1.65
1661,538280,1173368,2015,2015-07-04T12:03:43.690Z,45.9667,-129.987,1.0,0.0,OOAXCC1,0.81,1.26
1662,538281,1173368,2015,2015-07-04T12:03:43.690Z,45.9667,-129.987,1.0,0.0,OOAXEC1,0.6,1.31
1663,538282,1173369,2015,2015-07-04T12:04:05.490Z,45.9653,-129.9953,2.54,0.0,OOAXCC1,0.67,1.35
1664,538283,1173369,2015,2015-07-04T12:04:05.490Z,45.9653,-129.9953,2.54,0.0,OOAXEC1,0.76,1.46
1665,538284,1173370,2015,2015-07-04T12:06:06.670Z,45.965,-129.9942,2.73,0.0,OOAXEC3,1.0,1.82
1666,538285,1173370,2015,2015-07-04T12:06:06.670Z,45.965,-129.9942,2.73,0.0,OOAXCC1,0.69,1.41
1667,538286,1173370,2015,2015-07-04T12:06:06.670Z,45.965,-129.9942,2.73,0.0,OOAXEC1,0.78,1.47
1668,538287,1173371,2015,2015-07-04T14:19:11.390Z,45.9633,-129.995,2.34,0.0,OOAXEC3,0.92,1.73
1669,538288,1173371,2015,2015-07-04T14:19:11.390Z,45.9633,-129.995,2.34,0.0,OOAXEC2,0.89,1.66
1670,538289,1173371,2015,2015-07-04T14:19:11.390Z,45.9633,-129.995,2.34,0.0,OOAXCC1,0.61,1.29
1671,538290,1173371,2015,2015-07-04T14:19:11.390Z,45.9633,-129.995,2.34,0.0,OOAXEC1,0.7,1.38
1672,538291,1173372,2015,2015-07-04T15:42:06.950Z,45.969,-129.9825,1.0,0.0,OOAXEC3,0.97,1.77
1673,538292,1173372,2015,2015-07-04T15:42:06.950Z,45.969,-129.9825,1.0,0.0,OOAXEC1,0.56,1.35
1674,538293,1173373,2015,2015-07-04T15:45:19.730Z,45.9497,-129.99,1.52,0.0,OOAXAS2,0.77,1.31
1675,538294,1173373,2015,2015-07-04T15:45:19.730Z,45.9497,-129.99,1.52,0.0,OOAXEC3,0.59,1.17
1676,538295,1173373,2015,2015-07-04T15:45:19.730Z,45.9497,-129.99,1.52,0.0,OOAXEC2,0.58,1.12
1677,538296,1173373,2015,2015-07-04T15:45:19.730Z,45.9497,-129.99,1.52,0.0,OOAXAS1,0.69,1.31
1678,538297,1173373,2015,2015-07-04T15:45:19.730Z,45.9497,-129.99,1.52,0.0,OOAXCC1,0.54,1.14
1679,538298,1173373,2015,2015-07-04T15:45:19.730Z,45.9497,-129.99,1.52,0.0,OOAXEC1,0.42,0.95
1680,538299,1173374,2015,2015-07-04T17:07:38.130Z,45.9368,-129.979,1.52,0.0,OOAXEC3,0.41,0.86
1681,538300,1173375,2015,2015-07-04T21:53:29.010Z,45.965,-129.9972,1.83,0.0,OOAXEC3,0.91,1.77
1682,538301,1173375,2015,2015-07-04T21:53:29.010Z,45.965,-129.9972,1.83,0.0,OOAXEC2,0.88,1.66
1683,538302,1173375,2015,2015-07-04T21:53:29.010Z,45.965,-129.9972,1.83,0.0,OOAXCC1,0.57,1.15
1684,538303,1173375,2015,2015-07-04T21:53:29.010Z,45.965,-129.9972,1.83,0.0,OOAXEC1,0.68,1.36
1685,538304,1173376,2015,2015-07-05T01:29:29.590Z,45.9518,-129.9818,1.23,0.0,OOAXEC3,0.58,1.13
1686,538305,1173376,2015,2015-07-05T01:29:29.590Z,45.9518,-129.9818,1.23,0.0,OOAXEC2,0.53,1.06
1687,538306,1173376,2015,2015-07-05T01:29:29.590Z,45.9518,-129.9818,1.23,0.0,OOAXAS1,0.72,1.39
1688,538307,1173376,2015,2015-07-05T01:29:29.590Z,45.9518,-129.9818,1.23,0.0,OOAXCC1,0.58,1.29
1689,538308,1173376,2015,2015-07-05T01:29:29.590Z,45.9518,-129.9818,1.23,0.0,OOAXEC1,0.37,0.77
1690,538309,1173377,2015,2015-07-05T02:11:47.230Z,45.9488,-129.987,1.04,0.0,OOAXAS2,0.68,1.29
1691,538310,1173377,2015,2015-07-05T02:11:47.230Z,45.9488,-129.987,1.04,0.0,OOAXEC3,0.52,1.11
1692,538311,1173377,2015,2015-07-05T02:11:47.230Z,45.9488,-129.987,1.04,0.0,OOAXEC2,0.5,1.02
1693,538312,1173377,2015,2015-07-05T02:11:47.230Z,45.9488,-129.987,1.04,0.0,OOAXAS1,0.64,1.34
1694,538313,1173377,2015,2015-07-05T02:11:47.230Z,45.9488,-129.987,1.04,0.0,OOAXCC1,0.55,1.25
1695,538314,1173377,2015,2015-07-05T02:11:47.230Z,45.9488,-129.987,1.04,0.0,OOAXEC1,0.34,0.74
