,Unnamed: 0,id,year,datetime,lat,lon,dep,mag,station,p_arrival_time,s_arrival_time
639,537258,1173066,2015,2015-06-09T04:17:20.250Z,45.9327,-130.0312,0.01,0.0,OOAXEC3,1.49,2.98
640,537259,1173066,2015,2015-06-09T04:17:20.250Z,45.9327,-130.0312,0.01,0.0,OOAXEC2,0.92,3.22
641,537260,1173066,2015,2015-06-09T04:17:20.250Z,45.9327,-130.0312,0.01,0.0,OOAXCC1,2.41,2.41
642,537261,1173066,2015,2015-06-09T04:17:20.250Z,45.9327,-130.0312,0.01,0.0,OOAXEC1,1.46,2.28
643,537262,1173067,2015,2015-06-09T04:54:07.720Z,45.9207,-130.0855,0.02,0.0,OOAXAS2,1.35,2.35
644,537263,1173067,2015,2015-06-09T04:54:07.720Z,45.9207,-130.0855,0.02,0.0,OOAXEC3,2.09,4.43
645,537264,1173067,2015,2015-06-09T04:54:07.720Z,45.9207,-130.0855,0.02,0.0,OOAXEC2,2.45,4.65
646,537265,1173067,2015,2015-06-09T04:54:07.720Z,45.9207,-130.0855,0.02,0.0,OOAXAS1,1.48,2.46
647,537266,1173068,2015,2015-06-09T05:09:38.550Z,45.9423,-129.9783,1.21,0.0,OOAXEC3,0.38,0.85
648,537267,1173068,2015,2015-06-09T05:09:38.550Z,45.9423,-129.9783,1.21,0.0,OOAXAS1,0.6,1.2
649,537268,1173070,2015,2015-06-09T06:13:38.650Z,45.9117,-129.9675,0.06,0.0,OOAXAS2,1.4,2.48
650,537269,1173070,2015,2015-06-09T06:13:38.650Z,45.9117,-129.9675,0.06,0.0,OOAXEC3,0.06,2.1
651,537270,1173070,2015,2015-06-09T06:13:38.650Z,45.9117,-129.9675,0.06,0.0,OOAXAS1,0.96,2.15
652,537271,1173070,2015,2015-06-09T06:13:38.650Z,45.9117,-129.9675,0.06,0.0,OOAXCC1,2.58,3.42
653,537272,1173070,2015,2015-06-09T06:13:38.650Z,45.9117,-129.9675,0.06,0.0,OOAXID1,-1.11,0.15
654,537273,1173071,2015,2015-06-09T08:25:26.080Z,45.9498,-129.9665,0.0,0.0,OOAXCC1,0.82,2.51
655,537274,1173072,2015,2015-06-09T10:14:54.360Z,45.9418,-130.0305,0.01,0.0,OOAXAS2,0.35,1.75
656,537275,1173072,2015,2015-06-09T10:14:54.360Z,45.9418,-130.0305,0.01,0.0,OOAXAS1,0.68,1.98
657,537276,1173072,2015,2015-06-09T10:14:54.360Z,45.9418,-130.0305,0.01,0.0,OOAXCC1,1.64,1.65
658,537277,1173073,2015,2015-06-09T11:01:54.500Z,45.941,-130.04,0.06,0.0,OOAXAS2,0.23,1.53
659,537278,1173073,2015,2015-06-09T11:01:54.500Z,45.941,-130.04,0.06,0.0,OOAXEC3,1.95,2.73
660,537279,1173073,2015,2015-06-09T11:01:54.500Z,45.941,-130.04,0.06,0.0,OOAXCC1,0.52,1.73
661,537280,1173073,2015,2015-06-09T11:01:54.500Z,45.941,-130.04,0.06,0.0,OOAXEC1,1.89,2.69
662,537281,1173074,2015,2015-06-09T11:07:14.540Z,45.9693,-129.9893,0.71,0.0,OOAXEC3,1.13,2.14
663,537282,1173074,2015,2015-06-09T11:07:14.540Z,45.9693,-129.9893,0.71,0.0,OOAXCC1,-0.03,0.56
664,537283,1173074,2015,2015-06-09T11:07:14.540Z,45.9693,-129.9893,0.71,0.0,OOAXEC1,0.43,0.74
665,537284,1173075,2015,2015-06-09T11:34:10.610Z,45.8448,-130.053,0.56,0.0,OOAXEC3,2.99,3.92
666,537285,1173075,2015,2015-06-09T11:34:10.610Z,45.8448,-130.053,0.56,0.0,OOAXEC2,3.32,4.2
667,537286,1173075,2015,2015-06-09T11:34:10.610Z,45.8448,-130.053,0.56,0.0,OOAXAS1,2.04,3.24
668,537287,1173075,2015,2015-06-09T11:34:10.610Z,45.8448,-130.053,0.56,0.0,OOAXEC1,4.41,5.84
669,537288,1173076,2015,2015-06-09T11:54:12.150Z,45.933,-130.0315,0.11,0.0,OOAXAS2,0.38,1.35
670,537289,1173076,2015,2015-06-09T11:54:12.150Z,45.933,-130.0315,0.11,0.0,OOAXAS1,0.96,1.81
671,537290,1173077,2015,2015-06-09T14:26:19.130Z,45.9085,-129.9832,0.0,0.0,OOAXAS2,0.78,1.89
672,537291,1173077,2015,2015-06-09T14:26:19.130Z,45.9085,-129.9832,0.0,0.0,OOAXEC3,0.78,1.88
673,537292,1173077,2015,2015-06-09T14:26:19.130Z,45.9085,-129.9832,0.0,0.0,OOAXEC2,1.08,2.11
674,537293,1173077,2015,2015-06-09T14:26:19.130Z,45.9085,-129.9832,0.0,0.0,OOAXAS1,0.56,1.72
675,537294,1173077,2015,2015-06-09T14:26:19.130Z,45.9085,-129.9832,0.0,0.0,OOAXCC1,2.97,4.37
676,537295,1173077,2015,2015-06-09T14:26:19.130Z,45.9085,-129.9832,0.0,0.0,OOAXEC1,1.7,2.62
677,537296,1173078,2015,2015-06-09T14:26:34.660Z,45.9527,-130.0065,0.01,0.0,OOAXAS2,0.73,1.85
678,537297,1173078,2015,2015-06-09T14:26:34.660Z,45.9527,-130.0065,0.01,0.0,OOAXEC3,0.77,1.86
679,537298,1173078,2015,2015-06-09T14:26:34.660Z,45.9527,-130.0065,0.01,0.0,OOAXEC2,1.07,2.1
680,537299,1173078,2015,2015-06-09T14:26:34.660Z,45.9527,-130.0065,0.01,0.0,OOAXAS1,0.51,1.69
681,537300,1173079,2015,2015-06-09T15:42:15.920Z,45.9192,-129.999,1.2,0.0,OOAXAS2,0.51,0.81
682,537301,1173079,2015,2015-06-09T15:42:15.920Z,45.9192,-129.999,1.2,0.0,OOAXEC3,0.73,1.4
683,537302,1173079,2015,2015-06-09T15:42:15.920Z,45.9192,-129.999,1.2,0.0,OOAXEC2,0.82,1.5
684,537303,1173079,2015,2015-06-09T15:42:15.920Z,45.9192,-129.999,1.2,0.0,OOAXAS1,0.56,1.14
685,537304,1173079,2015,2015-06-09T15:42:15.920Z,45.9192,-129.999,1.2,0.0,OOAXCC1,1.0,1.9
686,537305,1173079,2015,2015-06-09T15:42:15.920Z,45.9192,-129.999,1.2,0.0,OOAXEC1,0.91,1.77
687,537306,1173079,2015,2015-06-09T15:42:15.920Z,45.9192,-129.999,1.2,0.0,OOAXID1,0.63,1.11
688,537307,1173081,2015,2015-06-09T18:18:56.520Z,45.9607,-129.9632,0.17,0.0,OOAXEC3,0.89,1.92
689,537308,1173081,2015,2015-06-09T18:18:56.520Z,45.9607,-129.9632,0.17,0.0,OOAXEC2,0.89,1.81
690,537309,1173081,2015,2015-06-09T18:18:56.520Z,45.9607,-129.9632,0.17,0.0,OOAXEC1,0.66,1.51
691,537310,1173082,2015,2015-06-09T19:43:18.320Z,45.9588,-129.9958,2.14,0.0,OOAXEC3,0.83,1.57
692,537311,1173082,2015,2015-06-09T19:43:18.320Z,45.9588,-129.9958,2.14,0.0,OOAXEC2,0.85,1.53
693,537312,1173082,2015,2015-06-09T19:43:18.320Z,45.9588,-129.9958,2.14,0.0,OOAXCC1,0.5,1.2
694,537313,1173082,2015,2015-06-09T19:43:18.320Z,45.9588,-129.9958,2.14,0.0,OOAXEC1,0.65,1.25
695,537314,1173083,2015,2015-06-16T11:36:22.830Z,45.9443,-129.9863,1.05,0.0,OOAXEC3,0.45,0.91
696,537315,1173083,2015,2015-06-16T11:36:22.830Z,45.9443,-129.9863,1.05,0.0,OOAXEC2,0.43,0.86
697,537316,1173083,2015,2015-06-16T11:36:22.830Z,45.9443,-129.9863,1.05,0.0,OOAXCC1,0.63,1.18
698,537317,1173083,2015,2015-06-16T11:36:22.830Z,45.9443,-129.9863,1.05,0.0,OOAXEC1,0.37,0.8
699,537318,1173084,2015,2015-06-16T11:44:06.360Z,45.9697,-129.9932,2.01,0.0,OOAXEC3,1.29,1.88
700,537319,1173084,2015,2015-06-16T11:44:06.360Z,45.9697,-129.9932,2.01,0.0,OOAXEC2,0.93,1.74
701,537320,1173084,2015,2015-06-16T11:44:06.360Z,45.9697,-129.9932,2.01,0.0,OOAXCC1,0.62,1.37
702,537321,1173084,2015,2015-06-16T11:44:06.360Z,45.9697,-129.9932,2.01,0.0,OOAXEC1,0.74,1.47
703,537322,1173085,2015,2015-06-16T12:12:56.010Z,45.9797,-129.98,2.5,0.0,OOAXEC3,1.17,2.19
704,537323,1173085,2015,2015-06-16T12:12:56.010Z,45.9797,-129.98,2.5,0.0,OOAXEC2,1.13,2.07
705,537324,1173085,2015,2015-06-16T12:12:56.010Z,45.9797,-129.98,2.5,0.0,OOAXEC1,0.91,1.77
706,537325,1173086,2015,2015-06-16T14:17:29.570Z,45.9407,-129.9817,1.53,0.0,OOAXEC3,0.48,0.94
707,537326,1173086,2015,2015-06-16T14:17:29.570Z,45.9407,-129.9817,1.53,0.0,OOAXEC2,0.47,0.9
708,537327,1173086,2015,2015-06-16T14:17:29.570Z,45.9407,-129.9817,1.53,0.0,OOAXEC1,0.47,0.93
709,537328,1173086,2015,2015-06-16T14:17:29.570Z,45.9407,-129.9817,1.53,0.0,OOAXID1,0.62,1.07
710,537329,1173087,2015,2015-06-16T18:04:22.670Z,45.968,-129.986,0.79,0.0,OOAXEC2,0.97,0.97
711,537330,1173087,2015,2015-06-16T18:04:22.670Z,45.968,-129.986,0.79,0.0,OOAXCC1,0.5,1.39
712,537331,1173087,2015,2015-06-16T18:04:22.670Z,45.968,-129.986,0.79,0.0,OOAXID1,1.96,3.12
713,537332,1173088,2015,2015-06-16T18:12:36.190Z,45.969,-129.9925,1.0,0.0,OOAXEC2,0.33,1.04
714,537333,1173088,2015,2015-06-16T18:12:36.190Z,45.969,-129.9925,1.0,0.0,OOAXCC1,0.29,1.0
715,537334,1173088,2015,2015-06-16T18:12:36.190Z,45.969,-129.9925,1.0,0.0,OOAXID1,1.92,3.2
716,537335,1173089,2015,2015-06-16T18:13:45.610Z,45.9663,-129.9985,0.37,0.0,OOAXEC2,0.42,0.53
717,537336,1173089,2015,2015-06-16T18:13:45.610Z,45.9663,-129.9985,0.37,0.0,OOAXCC1,-0.25,0.45
718,537337,1173090,2015,2015-06-16T18:27:18.230Z,45.9605,-129.9938,0.72,0.0,OOAXAS2,0.92,1.74
719,537338,1173090,2015,2015-06-16T18:27:18.230Z,45.9605,-129.9938,0.72,0.0,OOAXCC1,0.47,1.03
720,537339,1173091,2015,2015-06-16T21:05:37.260Z,45.9003,-130.0332,0.82,0.0,OOAXAS2,-0.85,1.63
721,537340,1173091,2015,2015-06-16T21:05:37.260Z,45.9003,-130.0332,0.82,0.0,OOAXEC2,1.27,2.56
722,537341,1173091,2015,2015-06-16T21:05:37.260Z,45.9003,-130.0332,0.82,0.0,OOAXAS1,-0.59,1.78
723,537342,1173091,2015,2015-06-16T21:05:37.260Z,45.9003,-130.0332,0.82,0.0,OOAXCC1,1.39,2.58
724,537343,1173091,2015,2015-06-16T21:05:37.260Z,45.9003,-130.0332,0.82,0.0,OOAXEC1,1.66,2.88
725,537344,1173092,2015,2015-06-16T21:24:54.120Z,45.9182,-130.0357,0.0,0.0,OOAXAS2,0.12,1.56
726,537345,1173092,2015,2015-06-16T21:24:54.120Z,45.9182,-130.0357,0.0,0.0,OOAXAS1,0.24,1.66
727,537346,1173092,2015,2015-06-16T21:24:54.120Z,45.9182,-130.0357,0.0,0.0,OOAXCC1,1.44,2.58
728,537347,1173092,2015,2015-06-16T21:24:54.120Z,45.9182,-130.0357,0.0,0.0,OOAXEC1,2.69,4.19
729,537348,1173093,2015,2015-06-16T21:40:04.460Z,45.9208,-130.004,0.07,0.0,OOAXEC2,0.76,2.01
730,537349,1173093,2015,2015-06-16T21:40:04.460Z,45.9208,-130.004,0.07,0.0,OOAXAS1,-0.82,1.42
731,537350,1173093,2015,2015-06-16T21:40:04.460Z,45.9208,-130.004,0.07,0.0,OOAXCC1,1.32,2.43
732,537351,1173093,2015,2015-06-16T21:40:04.460Z,45.9208,-130.004,0.07,0.0,OOAXEC1,1.27,2.48
733,537352,1173094,2015,2015-06-16T21:51:34.230Z,45.9045,-130.0118,0.56,0.0,OOAXAS2,0.29,1.65
734,537353,1173094,2015,2015-06-16T21:51:34.230Z,45.9045,-130.0118,0.56,0.0,OOAXEC2,0.97,2.18
735,537354,1173094,2015,2015-06-16T21:51:34.230Z,45.9045,-130.0118,0.56,0.0,OOAXAS1,-0.51,0.29
736,537355,1173094,2015,2015-06-16T21:51:34.230Z,45.9045,-130.0118,0.56,0.0,OOAXCC1,1.65,1.65
737,537356,1173095,2015,2015-06-16T22:03:05.090Z,45.9647,-130.0688,0.77,0.0,OOAXCC1,0.84,1.48
738,537357,1173095,2015,2015-06-16T22:03:05.090Z,45.9647,-130.0688,0.77,0.0,OOAXEC1,1.98,3.35
739,537358,1173096,2015,2015-06-16T22:04:04.880Z,45.8927,-130.032,0.54,0.0,OOAXAS2,1.08,2.38
740,537359,1173096,2015,2015-06-16T22:04:04.880Z,45.8927,-130.032,0.54,0.0,OOAXEC2,1.72,2.92
741,537360,1173097,2015,2015-06-17T06:01:34.340Z,45.952,-129.9832,1.53,0.0,OOAXEC3,0.61,1.18
742,537361,1173097,2015,2015-06-17T06:01:34.340Z,45.952,-129.9832,1.53,0.0,OOAXEC2,0.59,1.13
743,537362,1173097,2015,2015-06-17T06:01:34.340Z,45.952,-129.9832,1.53,0.0,OOAXAS1,0.71,1.4
744,537363,1173097,2015,2015-06-17T06:01:34.340Z,45.952,-129.9832,1.53,0.0,OOAXCC1,0.6,1.27
745,537364,1173097,2015,2015-06-17T06:01:34.340Z,45.952,-129.9832,1.53,0.0,OOAXEC1,0.44,0.87
746,537365,1173098,2015,2015-06-17T07:02:44.370Z,45.9217,-130.0282,0.01,0.0,OOAXEC3,1.0,2.67
747,537366,1173098,2015,2015-06-17T07:02:44.370Z,45.9217,-130.0282,0.01,0.0,OOAXAS1,-0.32,1.64
748,537367,1173099,2015,2015-06-18T16:02:51.770Z,45.945,-129.9963,1.0,0.0,OOAXAS1,0.51,1.18
749,537368,1173100,2015,2015-06-18T16:04:28.600Z,45.9648,-129.9955,2.62,0.0,OOAXEC3,1.41,1.81
750,537369,1173100,2015,2015-06-18T16:04:28.600Z,45.9648,-129.9955,2.62,0.0,OOAXCC1,0.64,1.39
751,537370,1173100,2015,2015-06-18T16:04:28.600Z,45.9648,-129.9955,2.62,0.0,OOAXEC1,0.79,1.44
752,537371,1173101,2015,2015-06-18T16:19:24.930Z,45.9278,-129.9722,0.27,0.0,OOAXEC3,0.2,0.22
753,537372,1173101,2015,2015-06-18T16:19:24.930Z,45.9278,-129.9722,0.27,0.0,OOAXCC1,2.15,2.17
754,537373,1173101,2015,2015-06-18T16:19:24.930Z,45.9278,-129.9722,0.27,0.0,OOAXEC1,-0.88,1.18
755,537374,1173102,2015,2015-06-18T16:22:25.700Z,45.9347,-130.0203,0.72,0.0,OOAXAS2,0.12,0.43
756,537375,1173102,2015,2015-06-18T16:22:25.700Z,45.9347,-130.0203,0.72,0.0,OOAXAS1,0.7,1.1
757,537376,1173103,2015,2015-06-18T16:56:52.310Z,45.9425,-129.9832,0.9,0.0,OOAXEC3,0.42,0.79
758,537377,1173103,2015,2015-06-18T16:56:52.310Z,45.9425,-129.9832,0.9,0.0,OOAXAS1,0.52,1.11
759,537378,1173103,2015,2015-06-18T16:56:52.310Z,45.9425,-129.9832,0.9,0.0,OOAXEC1,0.38,0.83
760,537379,1173104,2015,2015-06-18T17:06:44.220Z,45.9647,-129.9918,1.21,0.0,OOAXAS2,1.0,1.82
761,537380,1173104,2015,2015-06-18T17:06:44.220Z,45.9647,-129.9918,1.21,0.0,OOAXEC3,0.84,1.62
762,537381,1173104,2015,2015-06-18T17:06:44.220Z,45.9647,-129.9918,1.21,0.0,OOAXEC2,0.81,1.58
763,537382,1173104,2015,2015-06-18T17:06:44.220Z,45.9647,-129.9918,1.21,0.0,OOAXAS1,0.98,2.17
764,537383,1173104,2015,2015-06-18T17:06:44.220Z,45.9647,-129.9918,1.21,0.0,OOAXCC1,0.49,1.16
765,537384,1173104,2015,2015-06-18T17:06:44.220Z,45.9647,-129.9918,1.21,0.0,OOAXEC1,0.6,1.26
766,537385,1173105,2015,2015-06-18T17:09:09.360Z,45.9633,-129.9953,2.4,0.0,OOAXEC3,0.9,1.73
767,537386,1173105,2015,2015-06-18T17:09:09.360Z,45.9633,-129.9953,2.4,0.0,OOAXEC2,0.9,1.68
768,537387,1173105,2015,2015-06-18T17:09:09.360Z,45.9633,-129.9953,2.4,0.0,OOAXCC1,0.63,1.29
769,537388,1173105,2015,2015-06-18T17:09:09.360Z,45.9633,-129.9953,2.4,0.0,OOAXEC1,0.7,1.39
770,537389,1173106,2015,2015-06-18T17:33:26.050Z,45.9682,-130.0005,1.14,0.0,OOAXEC3,0.94,1.9
771,537390,1173106,2015,2015-06-18T17:33:26.050Z,45.9682,-130.0005,1.14,0.0,OOAXEC2,0.91,1.81
772,537391,1173106,2015,2015-06-18T17:33:26.050Z,45.9682,-130.0005,1.14,0.0,OOAXCC1,0.62,1.07
773,537392,1173106,2015,2015-06-18T17:33:26.050Z,45.9682,-130.0005,1.14,0.0,OOAXEC1,0.71,1.47
774,537393,1173107,2015,2015-06-18T18:22:21.810Z,45.9643,-129.994,1.95,0.0,OOAXEC3,0.91,1.72
775,537394,1173107,2015,2015-06-18T18:22:21.810Z,45.9643,-129.994,1.95,0.0,OOAXEC2,0.87,1.59
776,537395,1173107,2015,2015-06-18T18:22:21.810Z,45.9643,-129.994,1.95,0.0,OOAXCC1,0.57,1.23
777,537396,1173107,2015,2015-06-18T18:22:21.810Z,45.9643,-129.994,1.95,0.0,OOAXEC1,0.67,1.32
778,537397,1173108,2015,2015-06-18T18:54:42.410Z,45.9267,-129.9977,1.35,0.0,OOAXEC3,0.82,1.17
779,537398,1173108,2015,2015-06-18T18:54:42.410Z,45.9267,-129.9977,1.35,0.0,OOAXAS1,0.33,0.93
780,537399,1173108,2015,2015-06-18T18:54:42.410Z,45.9267,-129.9977,1.35,0.0,OOAXCC1,0.26,1.68
781,537400,1173109,2015,2015-06-18T21:30:32.980Z,45.9348,-129.9367,10.98,0.0,OOAXEC3,1.73,3.41
782,537401,1173109,2015,2015-06-18T21:30:32.980Z,45.9348,-129.9367,10.98,0.0,OOAXAS1,2.01,3.5
783,537402,1173110,2015,2015-06-18T21:38:29.150Z,45.9503,-129.978,1.56,0.0,OOAXEC3,0.31,1.18
784,537403,1173110,2015,2015-06-18T21:38:29.150Z,45.9503,-129.978,1.56,0.0,OOAXCC1,0.72,1.39
785,537404,1173110,2015,2015-06-18T21:38:29.150Z,45.9503,-129.978,1.56,0.0,OOAXEC1,0.46,0.84
786,537405,1173112,2015,2015-06-18T22:22:50.420Z,46.0278,-129.9368,0.9,0.0,OOAXEC3,1.73,4.04
787,537406,1173113,2015,2015-06-19T01:22:16.320Z,45.9603,-129.9963,2.48,0.0,OOAXCC1,0.6,1.26
788,537407,1173113,2015,2015-06-19T01:22:16.320Z,45.9603,-129.9963,2.48,0.0,OOAXEC1,0.71,1.35
789,537408,1173114,2015,2015-06-19T01:53:19.140Z,45.963,-129.9872,1.0,0.0,OOAXEC3,0.77,1.53
790,537409,1173114,2015,2015-06-19T01:53:19.140Z,45.963,-129.9872,1.0,0.0,OOAXEC2,0.73,1.58
791,537410,1173114,2015,2015-06-19T01:53:19.140Z,45.963,-129.9872,1.0,0.0,OOAXCC1,0.69,1.12
792,537411,1173114,2015,2015-06-19T01:53:19.140Z,45.963,-129.9872,1.0,0.0,OOAXEC1,0.53,1.11
793,537412,1173115,2015,2015-06-19T05:42:23.540Z,46.0177,-129.8733,1.42,0.0,OOAXEC3,2.04,4.42
794,537413,1173116,2015,2015-06-19T05:56:04.310Z,45.9515,-129.9922,1.43,0.0,OOAXEC3,0.63,1.29
795,537414,1173116,2015,2015-06-19T05:56:04.310Z,45.9515,-129.9922,1.43,0.0,OOAXEC2,0.61,1.2
796,537415,1173116,2015,2015-06-19T05:56:04.310Z,45.9515,-129.9922,1.43,0.0,OOAXAS1,0.71,1.25
797,537416,1173116,2015,2015-06-19T05:56:04.310Z,45.9515,-129.9922,1.43,0.0,OOAXCC1,0.48,1.07
798,537417,1173116,2015,2015-06-19T05:56:04.310Z,45.9515,-129.9922,1.43,0.0,OOAXEC1,0.45,0.97
799,537418,1173117,2015,2015-06-19T08:08:12.110Z,45.9495,-129.9908,0.78,0.0,OOAXCC1,0.52,1.08
800,537419,1173117,2015,2015-06-19T08:08:12.110Z,45.9495,-129.9908,0.78,0.0,OOAXEC1,0.35,0.9
801,537420,1173118,2015,2015-06-19T08:47:00.980Z,45.9787,-129.9998,3.4,0.0,OOAXEC1,1.03,1.95
802,537421,1173119,2015,2015-06-19T09:27:26.510Z,45.9548,-129.9893,1.26,0.0,OOAXEC3,0.66,1.29
803,537422,1173119,2015,2015-06-19T09:27:26.510Z,45.9548,-129.9893,1.26,0.0,OOAXEC2,0.64,1.27
804,537423,1173119,2015,2015-06-19T09:27:26.510Z,45.9548,-129.9893,1.26,0.0,OOAXCC1,0.5,1.09
805,537424,1173119,2015,2015-06-19T09:27:26.510Z,45.9548,-129.9893,1.26,0.0,OOAXEC1,0.46,0.91
806,537425,1173120,2015,2015-06-19T11:44:24.280Z,45.9538,-129.9977,0.1,0.0,OOAXEC3,0.93,1.82
807,537426,1173120,2015,2015-06-19T11:44:24.280Z,45.9538,-129.9977,0.1,0.0,OOAXCC1,0.44,0.9
808,537427,1173120,2015,2015-06-19T11:44:24.280Z,45.9538,-129.9977,0.1,0.0,OOAXEC1,0.55,1.43
809,537428,1173121,2015,2015-06-19T15:58:28.230Z,45.9443,-129.9823,0.86,0.0,OOAXEC3,0.42,0.86
810,537429,1173121,2015,2015-06-19T15:58:28.230Z,45.9443,-129.9823,0.86,0.0,OOAXEC2,0.36,0.8
811,537430,1173121,2015,2015-06-19T15:58:28.230Z,45.9443,-129.9823,0.86,0.0,OOAXEC1,0.34,0.73
812,537431,1173122,2015,2015-06-19T16:13:42.470Z,45.9733,-130.0007,3.73,0.0,OOAXAS2,1.19,2.24
813,537432,1173122,2015,2015-06-19T16:13:42.470Z,45.9733,-130.0007,3.73,0.0,OOAXCC1,0.92,1.73
814,537433,1173122,2015,2015-06-19T16:13:42.470Z,45.9733,-130.0007,3.73,0.0,OOAXEC1,1.04,1.89
815,537434,1173123,2015,2015-06-19T16:53:40.270Z,45.9812,-129.9765,2.82,0.0,OOAXEC3,1.38,2.26
816,537435,1173123,2015,2015-06-19T16:53:40.270Z,45.9812,-129.9765,2.82,0.0,OOAXEC1,0.94,1.89
817,537436,1173124,2015,2015-06-19T18:45:05.770Z,45.9227,-130.009,1.67,0.0,OOAXAS2,0.54,0.82
818,537437,1173124,2015,2015-06-19T18:45:05.770Z,45.9227,-130.009,1.67,0.0,OOAXEC3,0.78,1.44
819,537438,1173124,2015,2015-06-19T18:45:05.770Z,45.9227,-130.009,1.67,0.0,OOAXAS1,0.6,1.17
820,537439,1173124,2015,2015-06-19T18:45:05.770Z,45.9227,-130.009,1.67,0.0,OOAXEC1,0.96,1.85
821,537440,1173126,2015,2015-06-19T20:05:41.040Z,45.9425,-129.985,0.93,0.0,OOAXAS2,0.73,1.17
822,537441,1173126,2015,2015-06-19T20:05:41.040Z,45.9425,-129.985,0.93,0.0,OOAXEC3,0.39,0.88
823,537442,1173126,2015,2015-06-19T20:05:41.040Z,45.9425,-129.985,0.93,0.0,OOAXEC2,0.37,0.81
824,537443,1173126,2015,2015-06-19T20:05:41.040Z,45.9425,-129.985,0.93,0.0,OOAXAS1,0.55,1.14
825,537444,1173126,2015,2015-06-19T20:05:41.040Z,45.9425,-129.985,0.93,0.0,OOAXCC1,0.68,1.42
826,537445,1173126,2015,2015-06-19T20:05:41.040Z,45.9425,-129.985,0.93,0.0,OOAXEC1,0.37,0.8
827,537446,1173127,2015,2015-06-20T05:47:25.700Z,45.9652,-129.9938,2.81,0.0,OOAXCC1,0.66,1.42
828,537447,1173127,2015,2015-06-20T05:47:25.700Z,45.9652,-129.9938,2.81,0.0,OOAXEC1,0.8,1.49
829,537448,1173128,2015,2015-06-20T08:33:04.850Z,45.9662,-129.9898,1.2,0.0,OOAXEC3,0.86,1.67
830,537449,1173128,2015,2015-06-20T08:33:04.850Z,45.9662,-129.9898,1.2,0.0,OOAXEC2,0.81,1.55
831,537450,1173128,2015,2015-06-20T08:33:04.850Z,45.9662,-129.9898,1.2,0.0,OOAXAS1,1.14,2.2
832,537451,1173128,2015,2015-06-20T08:33:04.850Z,45.9662,-129.9898,1.2,0.0,OOAXCC1,0.55,1.21
833,537452,1173128,2015,2015-06-20T08:33:04.850Z,45.9662,-129.9898,1.2,0.0,OOAXEC1,0.62,1.31
834,537453,1173129,2015,2015-06-20T09:47:45.500Z,45.9885,-129.978,1.02,0.0,OOAXCC1,1.0,2.08
835,537454,1173129,2015,2015-06-20T09:47:45.500Z,45.9885,-129.978,1.02,0.0,OOAXEC1,1.13,2.02
836,537455,1173130,2015,2015-06-20T09:56:06.240Z,45.9808,-129.9932,3.76,0.0,OOAXCC1,1.03,1.92
837,537456,1173130,2015,2015-06-20T09:56:06.240Z,45.9808,-129.9932,3.76,0.0,OOAXEC1,1.07,2.04
838,537457,1173131,2015,2015-06-20T10:55:26.180Z,45.945,-129.9868,1.04,0.0,OOAXAS2,0.73,1.2
839,537458,1173131,2015,2015-06-20T10:55:26.180Z,45.945,-129.9868,1.04,0.0,OOAXEC3,0.41,0.92
840,537459,1173131,2015,2015-06-20T10:55:26.180Z,45.945,-129.9868,1.04,0.0,OOAXEC2,0.4,0.89
841,537460,1173131,2015,2015-06-20T10:55:26.180Z,45.945,-129.9868,1.04,0.0,OOAXAS1,0.56,1.16
842,537461,1173131,2015,2015-06-20T10:55:26.180Z,45.945,-129.9868,1.04,0.0,OOAXCC1,0.62,1.2
843,537462,1173131,2015,2015-06-20T10:55:26.180Z,45.945,-129.9868,1.04,0.0,OOAXEC1,0.36,0.78
844,537463,1173132,2015,2015-06-20T12:54:55.420Z,45.9703,-129.993,2.7,0.0,OOAXAS2,1.19,2.04
845,537464,1173132,2015,2015-06-20T12:54:55.420Z,45.9703,-129.993,2.7,0.0,OOAXEC3,1.05,1.96
846,537465,1173132,2015,2015-06-20T12:54:55.420Z,45.9703,-129.993,2.7,0.0,OOAXEC2,1.05,1.86
847,537466,1173132,2015,2015-06-20T12:54:55.420Z,45.9703,-129.993,2.7,0.0,OOAXCC1,0.68,1.54
848,537467,1173132,2015,2015-06-20T12:54:55.420Z,45.9703,-129.993,2.7,0.0,OOAXEC1,0.79,1.6
849,537468,1173134,2015,2015-06-20T17:34:19.980Z,45.9665,-129.995,2.34,0.0,OOAXEC3,0.97,1.84
850,537469,1173134,2015,2015-06-20T17:34:19.980Z,45.9665,-129.995,2.34,0.0,OOAXEC2,0.93,1.7
851,537470,1173134,2015,2015-06-20T17:34:19.980Z,45.9665,-129.995,2.34,0.0,OOAXCC1,0.64,1.32
