,Unnamed: 0,id,year,datetime,lat,lon,dep,mag,station,p_arrival_time,s_arrival_time
852,537471,1173134,2015,2015-06-20T17:34:19.980Z,45.9665,-129.995,2.34,0.0,OOAXEC1,0.73,1.46
853,537472,1173135,2015,2015-06-20T20:54:22.990Z,45.9708,-129.9972,1.22,0.0,OOAXEC3,1.02,1.91
854,537473,1173135,2015,2015-06-20T20:54:22.990Z,45.9708,-129.9972,1.22,0.0,OOAXCC1,0.63,1.2
855,537474,1173135,2015,2015-06-20T20:54:22.990Z,45.9708,-129.9972,1.22,0.0,OOAXEC1,0.7,1.49
856,537475,1173136,2015,2015-06-20T22:55:34.530Z,45.9293,-129.9812,0.39,0.0,OOAXEC3,-1.03,0.04
857,537476,1173137,2015,2015-06-20T23:09:33.850Z,45.9333,-129.9702,0.02,0.0,OOAXEC3,-0.04,0.66
858,537477,1173137,2015,2015-06-20T23:09:33.850Z,45.9333,-129.9702,0.02,0.0,OOAXCC1,1.74,2.46
859,537478,1173137,2015,2015-06-20T23:09:33.850Z,45.9333,-129.9702,0.02,0.0,OOAXEC1,1.0,1.62
860,537479,1173138,2015,2015-06-21T06:57:26.060Z,45.9445,-129.9863,1.06,0.0,OOAXAS2,0.74,1.21
861,537480,1173138,2015,2015-06-21T06:57:26.060Z,45.9445,-129.9863,1.06,0.0,OOAXEC3,0.46,0.92
862,537481,1173138,2015,2015-06-21T06:57:26.060Z,45.9445,-129.9863,1.06,0.0,OOAXEC2,0.41,0.9
863,537482,1173138,2015,2015-06-21T06:57:26.060Z,45.9445,-129.9863,1.06,0.0,OOAXAS1,0.57,1.16
864,537483,1173138,2015,2015-06-21T06:57:26.060Z,45.9445,-129.9863,1.06,0.0,OOAXCC1,0.64,1.25
865,537484,1173138,2015,2015-06-21T06:57:26.060Z,45.9445,-129.9863,1.06,0.0,OOAXEC1,0.37,0.79
866,537485,1173139,2015,2015-06-21T07:11:57.100Z,45.9667,-129.9963,2.57,0.0,OOAXEC3,1.0,1.85
867,537486,1173139,2015,2015-06-21T07:11:57.100Z,45.9667,-129.9963,2.57,0.0,OOAXCC1,0.67,1.38
868,537487,1173139,2015,2015-06-21T07:11:57.100Z,45.9667,-129.9963,2.57,0.0,OOAXEC1,0.78,1.5
869,537488,1173140,2015,2015-06-21T07:54:05.670Z,45.9698,-129.9963,2.28,0.0,OOAXEC3,1.02,1.92
870,537489,1173140,2015,2015-06-21T07:54:05.670Z,45.9698,-129.9963,2.28,0.0,OOAXEC1,0.78,1.53
871,537490,1173141,2015,2015-06-21T09:04:53.100Z,45.9707,-129.9908,2.42,0.0,OOAXAS2,1.13,1.99
872,537491,1173141,2015,2015-06-21T09:04:53.100Z,45.9707,-129.9908,2.42,0.0,OOAXEC3,0.98,1.91
873,537492,1173141,2015,2015-06-21T09:04:53.100Z,45.9707,-129.9908,2.42,0.0,OOAXEC2,0.93,1.84
874,537493,1173141,2015,2015-06-21T09:04:53.100Z,45.9707,-129.9908,2.42,0.0,OOAXCC1,0.64,1.52
875,537494,1173141,2015,2015-06-21T09:04:53.100Z,45.9707,-129.9908,2.42,0.0,OOAXEC1,0.75,1.56
876,537495,1173142,2015,2015-06-21T09:22:01.070Z,45.9297,-129.975,1.61,0.0,OOAXEC3,0.47,0.94
877,537496,1173142,2015,2015-06-21T09:22:01.070Z,45.9297,-129.975,1.61,0.0,OOAXAS1,0.6,1.26
878,537497,1173143,2015,2015-06-21T10:31:43.910Z,45.9382,-129.975,1.72,0.0,OOAXEC3,0.45,0.93
879,537498,1173143,2015,2015-06-21T10:31:43.910Z,45.9382,-129.975,1.72,0.0,OOAXEC2,0.44,0.92
880,537499,1173143,2015,2015-06-21T10:31:43.910Z,45.9382,-129.975,1.72,0.0,OOAXAS1,0.66,1.25
881,537500,1173143,2015,2015-06-21T10:31:43.910Z,45.9382,-129.975,1.72,0.0,OOAXEC1,0.52,1.12
882,537501,1173144,2015,2015-06-21T11:27:24.000Z,45.8988,-129.9037,0.55,0.0,OOAXCC1,2.35,4.24
883,537502,1173145,2015,2015-06-21T15:02:35.280Z,45.9835,-129.9742,1.25,0.0,OOAXAS2,1.49,2.23
884,537503,1173145,2015,2015-06-21T15:02:35.280Z,45.9835,-129.9742,1.25,0.0,OOAXEC3,1.26,2.16
885,537504,1173145,2015,2015-06-21T15:02:35.280Z,45.9835,-129.9742,1.25,0.0,OOAXEC2,1.21,2.12
886,537505,1173145,2015,2015-06-21T15:02:35.280Z,45.9835,-129.9742,1.25,0.0,OOAXAS1,1.29,2.92
887,537506,1173145,2015,2015-06-21T15:02:35.280Z,45.9835,-129.9742,1.25,0.0,OOAXCC1,0.88,1.93
888,537507,1173145,2015,2015-06-21T15:02:35.280Z,45.9835,-129.9742,1.25,0.0,OOAXEC1,0.98,1.82
889,537508,1173146,2015,2015-06-21T16:17:23.120Z,45.9707,-129.9917,1.02,0.0,OOAXAS2,1.11,1.9
890,537509,1173146,2015,2015-06-21T16:17:23.120Z,45.9707,-129.9917,1.02,0.0,OOAXEC3,0.94,1.8
891,537510,1173146,2015,2015-06-21T16:17:23.120Z,45.9707,-129.9917,1.02,0.0,OOAXEC2,0.91,1.72
892,537511,1173146,2015,2015-06-21T16:17:23.120Z,45.9707,-129.9917,1.02,0.0,OOAXAS1,1.06,2.19
893,537512,1173146,2015,2015-06-21T16:17:23.120Z,45.9707,-129.9917,1.02,0.0,OOAXCC1,0.62,1.18
894,537513,1173146,2015,2015-06-21T16:17:23.120Z,45.9707,-129.9917,1.02,0.0,OOAXEC1,0.71,1.39
895,537514,1173147,2015,2015-06-21T17:12:29.950Z,45.9675,-130.0328,0.13,0.0,OOAXAS2,1.22,2.23
896,537515,1173147,2015,2015-06-21T17:12:29.950Z,45.9675,-130.0328,0.13,0.0,OOAXEC3,1.65,3.24
897,537516,1173147,2015,2015-06-21T17:12:29.950Z,45.9675,-130.0328,0.13,0.0,OOAXAS1,1.56,2.93
898,537517,1173147,2015,2015-06-21T17:12:29.950Z,45.9675,-130.0328,0.13,0.0,OOAXCC1,0.76,1.32
899,537518,1173148,2015,2015-06-21T17:33:58.330Z,45.9713,-129.9895,2.83,0.0,OOAXAS2,1.22,2.07
900,537519,1173148,2015,2015-06-21T17:33:58.330Z,45.9713,-129.9895,2.83,0.0,OOAXEC3,1.03,2.03
901,537520,1173148,2015,2015-06-21T17:33:58.330Z,45.9713,-129.9895,2.83,0.0,OOAXEC2,1.03,1.87
902,537521,1173148,2015,2015-06-21T17:33:58.330Z,45.9713,-129.9895,2.83,0.0,OOAXAS1,1.36,2.71
903,537522,1173148,2015,2015-06-21T17:33:58.330Z,45.9713,-129.9895,2.83,0.0,OOAXCC1,0.71,1.65
904,537523,1173148,2015,2015-06-21T17:33:58.330Z,45.9713,-129.9895,2.83,0.0,OOAXEC1,0.82,1.61
905,537524,1173149,2015,2015-06-21T17:34:18.890Z,45.9668,-129.9917,2.06,0.0,OOAXEC3,0.92,1.75
906,537525,1173149,2015,2015-06-21T17:34:18.890Z,45.9668,-129.9917,2.06,0.0,OOAXEC2,0.88,1.66
907,537526,1173149,2015,2015-06-21T17:34:18.890Z,45.9668,-129.9917,2.06,0.0,OOAXAS1,1.44,2.28
908,537527,1173149,2015,2015-06-21T17:34:18.890Z,45.9668,-129.9917,2.06,0.0,OOAXCC1,0.61,1.29
909,537528,1173149,2015,2015-06-21T17:34:18.890Z,45.9668,-129.9917,2.06,0.0,OOAXEC1,0.69,1.39
910,537529,1173150,2015,2015-06-21T18:35:43.210Z,45.9437,-129.9837,0.65,0.0,OOAXEC3,0.36,0.88
911,537530,1173150,2015,2015-06-21T18:35:43.210Z,45.9437,-129.9837,0.65,0.0,OOAXAS1,0.56,1.17
912,537531,1173150,2015,2015-06-21T18:35:43.210Z,45.9437,-129.9837,0.65,0.0,OOAXEC1,0.34,0.76
913,537532,1173151,2015,2015-06-21T19:44:45.790Z,46.0172,-130.0022,0.26,0.0,OOAXAS1,2.68,4.1
914,537533,1173151,2015,2015-06-21T19:44:45.790Z,46.0172,-130.0022,0.26,0.0,OOAXCC1,1.6,2.9
915,537534,1173151,2015,2015-06-21T19:44:45.790Z,46.0172,-130.0022,0.26,0.0,OOAXEC1,1.83,3.22
916,537535,1173152,2015,2015-06-21T19:50:42.290Z,45.9495,-129.9947,1.0,0.0,OOAXEC3,0.49,1.24
917,537536,1173152,2015,2015-06-21T19:50:42.290Z,45.9495,-129.9947,1.0,0.0,OOAXCC1,0.42,1.01
918,537537,1173152,2015,2015-06-21T19:50:42.290Z,45.9495,-129.9947,1.0,0.0,OOAXEC1,0.42,0.97
919,537538,1173153,2015,2015-06-21T22:12:24.840Z,45.944,-129.9825,1.05,0.0,OOAXEC3,0.41,0.91
920,537539,1173153,2015,2015-06-21T22:12:24.840Z,45.944,-129.9825,1.05,0.0,OOAXEC2,0.39,0.83
921,537540,1173153,2015,2015-06-21T22:12:24.840Z,45.944,-129.9825,1.05,0.0,OOAXAS1,0.56,1.13
922,537541,1173153,2015,2015-06-21T22:12:24.840Z,45.944,-129.9825,1.05,0.0,OOAXEC1,0.37,0.8
923,537542,1173154,2015,2015-06-22T00:41:09.600Z,45.9748,-130.0027,1.24,0.0,OOAXEC3,1.03,2.15
924,537543,1173154,2015,2015-06-22T00:41:09.600Z,45.9748,-130.0027,1.24,0.0,OOAXCC1,0.71,1.24
925,537544,1173154,2015,2015-06-22T00:41:09.600Z,45.9748,-130.0027,1.24,0.0,OOAXEC1,0.79,1.71
926,537545,1173155,2015,2015-06-22T01:11:44.670Z,45.9642,-129.9945,2.07,0.0,OOAXEC3,0.92,1.72
927,537546,1173155,2015,2015-06-22T01:11:44.670Z,45.9642,-129.9945,2.07,0.0,OOAXCC1,0.6,1.24
928,537547,1173155,2015,2015-06-22T01:11:44.670Z,45.9642,-129.9945,2.07,0.0,OOAXEC1,0.69,1.34
929,537548,1173156,2015,2015-06-22T03:42:48.910Z,45.9282,-130.0257,0.06,0.0,OOAXAS1,0.48,1.58
930,537549,1173156,2015,2015-06-22T03:42:48.910Z,45.9282,-130.0257,0.06,0.0,OOAXCC1,1.07,2.0
931,537550,1173156,2015,2015-06-22T03:42:48.910Z,45.9282,-130.0257,0.06,0.0,OOAXEC1,1.97,2.7
932,537551,1173157,2015,2015-06-22T03:43:02.350Z,45.9285,-130.039,0.13,0.0,OOAXAS2,0.04,1.4
933,537552,1173157,2015,2015-06-22T03:43:02.350Z,45.9285,-130.039,0.13,0.0,OOAXEC3,1.72,2.6
934,537553,1173157,2015,2015-06-22T03:43:02.350Z,45.9285,-130.039,0.13,0.0,OOAXAS1,0.68,1.78
935,537554,1173157,2015,2015-06-22T03:43:02.350Z,45.9285,-130.039,0.13,0.0,OOAXCC1,1.26,2.21
936,537555,1173157,2015,2015-06-22T03:43:02.350Z,45.9285,-130.039,0.13,0.0,OOAXEC1,2.1,2.89
937,537556,1173158,2015,2015-06-22T03:43:14.160Z,45.9192,-130.0255,0.16,0.0,OOAXAS1,-0.15,0.66
938,537557,1173158,2015,2015-06-22T03:43:14.160Z,45.9192,-130.0255,0.16,0.0,OOAXCC1,1.23,2.18
939,537558,1173158,2015,2015-06-22T03:43:14.160Z,45.9192,-130.0255,0.16,0.0,OOAXEC1,2.08,2.89
940,537559,1173159,2015,2015-06-22T03:43:32.410Z,45.927,-130.0262,0.12,0.0,OOAXEC3,0.16,2.29
941,537560,1173159,2015,2015-06-22T03:43:32.410Z,45.927,-130.0262,0.12,0.0,OOAXAS1,-0.48,0.38
942,537561,1173159,2015,2015-06-22T03:43:32.410Z,45.927,-130.0262,0.12,0.0,OOAXCC1,0.92,1.89
943,537562,1173159,2015,2015-06-22T03:43:32.410Z,45.927,-130.0262,0.12,0.0,OOAXEC1,1.8,2.6
944,537563,1173160,2015,2015-06-22T03:43:42.160Z,45.8627,-130.342,0.88,0.0,OOAXEC3,4.96,9.35
945,537564,1173160,2015,2015-06-22T03:43:42.160Z,45.8627,-130.342,0.88,0.0,OOAXCC1,4.47,8.97
946,537565,1173160,2015,2015-06-22T03:43:42.160Z,45.8627,-130.342,0.88,0.0,OOAXEC1,6.07,9.68
947,537566,1173161,2015,2015-06-22T03:44:07.960Z,45.9182,-130.0315,0.46,0.0,OOAXAS1,0.63,1.75
948,537567,1173161,2015,2015-06-22T03:44:07.960Z,45.9182,-130.0315,0.46,0.0,OOAXCC1,1.21,2.17
949,537568,1173161,2015,2015-06-22T03:44:07.960Z,45.9182,-130.0315,0.46,0.0,OOAXEC1,2.87,2.89
950,537569,1173162,2015,2015-06-22T03:44:11.270Z,45.9252,-130.0343,0.29,0.0,OOAXAS1,0.52,1.67
951,537570,1173162,2015,2015-06-22T03:44:11.270Z,45.9252,-130.0343,0.29,0.0,OOAXCC1,1.09,2.07
952,537571,1173162,2015,2015-06-22T03:44:11.270Z,45.9252,-130.0343,0.29,0.0,OOAXEC1,1.95,2.76
953,537572,1173163,2015,2015-06-22T03:44:34.610Z,45.9275,-130.0278,0.1,0.0,OOAXAS1,0.53,1.66
954,537573,1173163,2015,2015-06-22T03:44:34.610Z,45.9275,-130.0278,0.1,0.0,OOAXCC1,1.06,2.04
955,537574,1173163,2015,2015-06-22T03:44:34.610Z,45.9275,-130.0278,0.1,0.0,OOAXEC1,1.94,2.74
956,537575,1173164,2015,2015-06-22T04:28:26.060Z,45.9413,-129.9847,1.09,0.0,OOAXAS2,0.75,1.19
957,537576,1173164,2015,2015-06-22T04:28:26.060Z,45.9413,-129.9847,1.09,0.0,OOAXEC3,0.39,0.86
958,537577,1173164,2015,2015-06-22T04:28:26.060Z,45.9413,-129.9847,1.09,0.0,OOAXEC2,0.37,0.78
959,537578,1173164,2015,2015-06-22T04:28:26.060Z,45.9413,-129.9847,1.09,0.0,OOAXAS1,0.56,1.11
960,537579,1173164,2015,2015-06-22T04:28:26.060Z,45.9413,-129.9847,1.09,0.0,OOAXCC1,0.78,0.9
961,537580,1173164,2015,2015-06-22T04:28:26.060Z,45.9413,-129.9847,1.09,0.0,OOAXEC1,0.42,0.9
962,537581,1173165,2015,2015-06-22T05:03:19.270Z,45.942,-129.9843,0.66,0.0,OOAXEC3,0.34,0.81
963,537582,1173165,2015,2015-06-22T05:03:19.270Z,45.942,-129.9843,0.66,0.0,OOAXAS1,0.52,1.1
964,537583,1173165,2015,2015-06-22T05:03:19.270Z,45.942,-129.9843,0.66,0.0,OOAXEC1,-0.28,0.86
965,537584,1173166,2015,2015-06-22T07:25:23.280Z,46.0008,-130.0135,1.36,0.0,OOAXAS2,1.9,2.68
966,537585,1173166,2015,2015-06-22T07:25:23.280Z,46.0008,-130.0135,1.36,0.0,OOAXEC3,1.67,3.59
967,537586,1173166,2015,2015-06-22T07:25:23.280Z,46.0008,-130.0135,1.36,0.0,OOAXEC2,1.61,3.9
968,537587,1173166,2015,2015-06-22T07:25:23.280Z,46.0008,-130.0135,1.36,0.0,OOAXAS1,2.55,3.38
969,537588,1173166,2015,2015-06-22T07:25:23.280Z,46.0008,-130.0135,1.36,0.0,OOAXCC1,1.03,2.23
970,537589,1173166,2015,2015-06-22T07:25:23.280Z,46.0008,-130.0135,1.36,0.0,OOAXEC1,1.43,2.31
971,537590,1173167,2015,2015-06-22T08:00:51.250Z,45.9103,-129.9915,0.0,0.0,OOAXAS2,0.64,2.01
972,537591,1173167,2015,2015-06-22T08:00:51.250Z,45.9103,-129.9915,0.0,0.0,OOAXEC3,0.85,2.12
973,537592,1173167,2015,2015-06-22T08:00:51.250Z,45.9103,-129.9915,0.0,0.0,OOAXEC2,1.18,2.35
974,537593,1173167,2015,2015-06-22T08:00:51.250Z,45.9103,-129.9915,0.0,0.0,OOAXAS1,0.5,1.9
975,537594,1173167,2015,2015-06-22T08:00:51.250Z,45.9103,-129.9915,0.0,0.0,OOAXCC1,2.01,3.0
976,537595,1173167,2015,2015-06-22T08:00:51.250Z,45.9103,-129.9915,0.0,0.0,OOAXEC1,1.74,2.76
977,537596,1173167,2015,2015-06-22T08:00:51.250Z,45.9103,-129.9915,0.0,0.0,OOAXID1,-0.55,0.26
978,537597,1173168,2015,2015-06-22T10:14:16.100Z,45.9577,-130.0753,0.88,0.0,OOAXEC3,2.27,2.97
979,537598,1173168,2015,2015-06-22T10:14:16.100Z,45.9577,-130.0753,0.88,0.0,OOAXID1,1.36,3.16
980,537599,1173170,2015,2015-06-22T17:02:59.130Z,45.9503,-129.9887,1.35,0.0,OOAXCC1,0.51,1.13
981,537600,1173170,2015,2015-06-22T17:02:59.130Z,45.9503,-129.9887,1.35,0.0,OOAXEC1,0.43,0.77
982,537601,1173171,2015,2015-06-22T17:16:39.410Z,45.9878,-130.0038,1.13,0.0,OOAXEC3,1.66,3.2
983,537602,1173171,2015,2015-06-22T17:16:39.410Z,45.9878,-130.0038,1.13,0.0,OOAXEC1,0.64,1.84
984,537603,1173172,2015,2015-06-22T19:40:39.570Z,45.9457,-129.975,1.79,0.0,OOAXEC3,0.71,1.01
985,537604,1173172,2015,2015-06-22T19:40:39.570Z,45.9457,-129.975,1.79,0.0,OOAXAS1,0.76,1.34
986,537605,1173172,2015,2015-06-22T19:40:39.570Z,45.9457,-129.975,1.79,0.0,OOAXEC1,0.3,1.06
987,537606,1173173,2015,2015-06-22T20:41:35.910Z,45.8932,-130.0733,0.0,0.0,OOAXEC1,2.21,4.44
988,537607,1173174,2015,2015-06-22T22:27:35.630Z,45.9703,-129.9987,2.74,0.0,OOAXEC3,0.98,2.03
989,537608,1173174,2015,2015-06-22T22:27:35.630Z,45.9703,-129.9987,2.74,0.0,OOAXEC1,0.95,1.63
990,537609,1173175,2015,2015-06-22T23:29:29.860Z,45.9608,-129.9998,0.02,0.0,OOAXAS1,2.14,2.17
991,537610,1173175,2015,2015-06-22T23:29:29.860Z,45.9608,-129.9998,0.02,0.0,OOAXEC1,0.45,1.38
992,537611,1173176,2015,2015-06-23T01:41:47.710Z,45.9662,-129.9937,2.19,0.0,OOAXEC3,0.94,1.79
993,537612,1173176,2015,2015-06-23T01:41:47.710Z,45.9662,-129.9937,2.19,0.0,OOAXEC2,0.9,1.71
994,537613,1173176,2015,2015-06-23T01:41:47.710Z,45.9662,-129.9937,2.19,0.0,OOAXCC1,0.63,1.31
995,537614,1173176,2015,2015-06-23T01:41:47.710Z,45.9662,-129.9937,2.19,0.0,OOAXEC1,0.72,1.39
996,537615,1173177,2015,2015-06-23T06:19:41.880Z,45.9672,-129.992,1.82,0.0,OOAXAS2,1.08,1.85
997,537616,1173177,2015,2015-06-23T06:19:41.880Z,45.9672,-129.992,1.82,0.0,OOAXEC3,0.92,1.74
998,537617,1173177,2015,2015-06-23T06:19:41.880Z,45.9672,-129.992,1.82,0.0,OOAXEC2,0.89,1.7
999,537618,1173177,2015,2015-06-23T06:19:41.880Z,45.9672,-129.992,1.82,0.0,OOAXAS1,1.03,1.99
1000,537619,1173177,2015,2015-06-23T06:19:41.880Z,45.9672,-129.992,1.82,0.0,OOAXCC1,0.59,1.26
1001,537620,1173177,2015,2015-06-23T06:19:41.880Z,45.9672,-129.992,1.82,0.0,OOAXEC1,0.7,1.35
1002,537621,1173178,2015,2015-06-23T09:26:54.040Z,45.9732,-130.013,0.0,0.0,OOAXAS2,1.63,2.67
1003,537622,1173178,2015,2015-06-23T09:26:54.040Z,45.9732,-130.013,0.0,0.0,OOAXAS1,1.87,2.87
1004,537623,1173178,2015,2015-06-23T09:26:54.040Z,45.9732,-130.013,0.0,0.0,OOAXCC1,0.33,1.53
1005,537624,1173178,2015,2015-06-23T09:26:54.040Z,45.9732,-130.013,0.0,0.0,OOAXEC1,1.29,2.35
1006,537625,1173179,2015,2015-06-23T09:27:14.680Z,45.974,-130.0145,0.02,0.0,OOAXAS2,1.73,2.75
1007,537626,1173179,2015,2015-06-23T09:27:14.680Z,45.974,-130.0145,0.02,0.0,OOAXCC1,0.37,1.63
1008,537627,1173179,2015,2015-06-23T09:27:14.680Z,45.974,-130.0145,0.02,0.0,OOAXEC1,1.35,2.42
1009,537628,1173180,2015,2015-06-23T09:27:29.810Z,45.9822,-130.0093,1.16,0.0,OOAXAS2,1.32,2.36
1010,537629,1173180,2015,2015-06-23T09:27:29.810Z,45.9822,-130.0093,1.16,0.0,OOAXCC1,0.0,1.22
1011,537630,1173180,2015,2015-06-23T09:27:29.810Z,45.9822,-130.0093,1.16,0.0,OOAXEC1,0.96,2.04
1012,537631,1173181,2015,2015-06-23T09:27:44.100Z,45.9802,-129.9983,0.03,0.0,OOAXAS2,2.33,3.69
1013,537632,1173181,2015,2015-06-23T09:27:44.100Z,45.9802,-129.9983,0.03,0.0,OOAXAS1,1.47,2.55
1014,537633,1173181,2015,2015-06-23T09:27:44.100Z,45.9802,-129.9983,0.03,0.0,OOAXCC1,-0.03,1.18
1015,537634,1173181,2015,2015-06-23T09:27:44.100Z,45.9802,-129.9983,0.03,0.0,OOAXEC1,0.93,3.33
1016,537635,1173182,2015,2015-06-23T09:27:55.280Z,45.9852,-130.0033,1.19,0.0,OOAXAS2,1.29,2.33
1017,537636,1173182,2015,2015-06-23T09:27:55.280Z,45.9852,-130.0033,1.19,0.0,OOAXAS1,1.49,2.55
1018,537637,1173182,2015,2015-06-23T09:27:55.280Z,45.9852,-130.0033,1.19,0.0,OOAXCC1,-0.02,1.18
1019,537638,1173182,2015,2015-06-23T09:27:55.280Z,45.9852,-130.0033,1.19,0.0,OOAXEC1,0.93,2.0
1020,537639,1173183,2015,2015-06-23T09:28:35.150Z,45.9823,-129.9977,0.75,0.0,OOAXAS2,1.15,2.24
1021,537640,1173183,2015,2015-06-23T09:28:35.150Z,45.9823,-129.9977,0.75,0.0,OOAXAS1,1.38,2.48
1022,537641,1173183,2015,2015-06-23T09:28:35.150Z,45.9823,-129.9977,0.75,0.0,OOAXEC1,0.84,1.89
1023,537642,1173184,2015,2015-06-23T09:28:45.730Z,45.9832,-130.0165,0.03,0.0,OOAXAS2,1.9,2.96
1024,537643,1173184,2015,2015-06-23T09:28:45.730Z,45.9832,-130.0165,0.03,0.0,OOAXAS1,2.24,3.24
1025,537644,1173184,2015,2015-06-23T09:28:45.730Z,45.9832,-130.0165,0.03,0.0,OOAXCC1,0.63,1.85
1026,537645,1173185,2015,2015-06-23T09:28:58.570Z,45.9722,-130.0112,0.0,0.0,OOAXAS2,1.62,2.66
1027,537646,1173185,2015,2015-06-23T09:28:58.570Z,45.9722,-130.0112,0.0,0.0,OOAXCC1,0.28,1.51
1028,537647,1173185,2015,2015-06-23T09:28:58.570Z,45.9722,-130.0112,0.0,0.0,OOAXEC1,1.24,2.29
1029,537648,1173186,2015,2015-06-23T10:38:45.390Z,45.9668,-129.9965,2.71,0.0,OOAXCC1,0.58,1.52
1030,537649,1173186,2015,2015-06-23T10:38:45.390Z,45.9668,-129.9965,2.71,0.0,OOAXEC1,0.92,1.46
1031,537650,1173187,2015,2015-06-23T15:27:46.680Z,45.974,-129.991,2.19,0.0,OOAXAS2,1.28,2.06
1032,537651,1173187,2015,2015-06-23T15:27:46.680Z,45.974,-129.991,2.19,0.0,OOAXEC3,1.08,2.02
1033,537652,1173187,2015,2015-06-23T15:27:46.680Z,45.974,-129.991,2.19,0.0,OOAXEC2,0.98,1.93
1034,537653,1173187,2015,2015-06-23T15:27:46.680Z,45.974,-129.991,2.19,0.0,OOAXCC1,0.71,1.55
1035,537654,1173187,2015,2015-06-23T15:27:46.680Z,45.974,-129.991,2.19,0.0,OOAXEC1,0.79,1.64
1036,537655,1173188,2015,2015-06-23T15:51:03.020Z,45.9513,-129.9845,1.49,0.0,OOAXCC1,0.59,1.24
1037,537656,1173188,2015,2015-06-23T15:51:03.020Z,45.9513,-129.9845,1.49,0.0,OOAXEC1,0.43,0.86
1038,537657,1173189,2015,2015-06-23T16:55:05.330Z,45.9772,-129.9885,3.0,0.0,OOAXCC1,0.9,1.78
1039,537658,1173189,2015,2015-06-23T16:55:05.330Z,45.9772,-129.9885,3.0,0.0,OOAXEC1,0.97,1.78
1040,537659,1173190,2015,2015-06-23T18:45:08.520Z,45.9517,-129.9938,1.0,0.0,OOAXCC1,0.44,0.98
1041,537660,1173190,2015,2015-06-23T18:45:08.520Z,45.9517,-129.9938,1.0,0.0,OOAXEC1,0.41,0.96
1042,537661,1173191,2015,2015-06-23T18:59:15.550Z,45.9525,-129.994,1.0,0.0,OOAXEC3,0.6,1.31
1043,537662,1173191,2015,2015-06-23T18:59:15.550Z,45.9525,-129.994,1.0,0.0,OOAXCC1,0.42,0.99
1044,537663,1173191,2015,2015-06-23T18:59:15.550Z,45.9525,-129.994,1.0,0.0,OOAXEC1,0.42,0.98
1045,537664,1173192,2015,2015-06-23T19:11:43.970Z,45.9767,-129.9913,3.35,0.0,OOAXAS2,1.3,2.29
1046,537665,1173192,2015,2015-06-23T19:11:43.970Z,45.9767,-129.9913,3.35,0.0,OOAXEC3,1.18,2.2
1047,537666,1173192,2015,2015-06-23T19:11:43.970Z,45.9767,-129.9913,3.35,0.0,OOAXEC2,1.16,2.14
1048,537667,1173192,2015,2015-06-23T19:11:43.970Z,45.9767,-129.9913,3.35,0.0,OOAXCC1,0.86,1.82
1049,537668,1173192,2015,2015-06-23T19:11:43.970Z,45.9767,-129.9913,3.35,0.0,OOAXEC1,0.96,1.85
1050,537669,1173193,2015,2015-06-23T20:01:26.380Z,45.9675,-129.9848,1.0,0.0,OOAXCC1,0.69,1.34
1051,537670,1173193,2015,2015-06-23T20:01:26.380Z,45.9675,-129.9848,1.0,0.0,OOAXEC1,0.53,1.27
1052,537671,1173194,2015,2015-06-23T20:32:20.310Z,45.9417,-129.984,0.57,0.0,OOAXEC3,0.34,0.8
1053,537672,1173194,2015,2015-06-23T20:32:20.310Z,45.9417,-129.984,0.57,0.0,OOAXAS1,0.54,1.14
1054,537673,1173194,2015,2015-06-23T20:32:20.310Z,45.9417,-129.984,0.57,0.0,OOAXEC1,0.36,0.89
1055,537674,1173195,2015,2015-06-23T21:33:49.000Z,45.9718,-129.9922,1.22,0.0,OOAXEC3,0.73,1.9
1056,537675,1173195,2015,2015-06-23T21:33:49.000Z,45.9718,-129.9922,1.22,0.0,OOAXEC2,1.04,1.81
1057,537676,1173195,2015,2015-06-23T21:33:49.000Z,45.9718,-129.9922,1.22,0.0,OOAXAS1,1.33,2.61
1058,537677,1173195,2015,2015-06-23T21:33:49.000Z,45.9718,-129.9922,1.22,0.0,OOAXCC1,0.54,1.28
1059,537678,1173195,2015,2015-06-23T21:33:49.000Z,45.9718,-129.9922,1.22,0.0,OOAXEC1,0.68,1.49
1060,537679,1173196,2015,2015-06-23T23:57:01.070Z,45.961,-129.9945,1.63,0.0,OOAXAS2,0.94,1.64
1061,537680,1173196,2015,2015-06-23T23:57:01.070Z,45.961,-129.9945,1.63,0.0,OOAXEC3,0.86,1.59
1062,537681,1173196,2015,2015-06-23T23:57:01.070Z,45.961,-129.9945,1.63,0.0,OOAXEC2,0.82,1.49
1063,537682,1173196,2015,2015-06-23T23:57:01.070Z,45.961,-129.9945,1.63,0.0,OOAXCC1,0.46,1.13
